{"type":"FeatureCollection","features":[{"type":"Feature","properties":{"name":"亚热带季风","climate_zone":"亚热带季风","region_code":"CN_CLIMATE_亚热带季风","source_year":"derived","source_name":"本地中国气候类型矢量数据","license":"教学用矢量，来源标注 required","__fillColor":"#84cc16","__fillOpacity":0.55,"__strokeColor":"#0f172a","__strokeWidth":0.6},"geometry":{"type":"MultiPolygon","coordinates":[[[[121.2008,23.1662],[120.8319,22.9886],[120.6287,22.985],[120.4401,23.3777],[120.1492,23.3923],[120.1324,23.5467],[120.1577,23.6716],[120.4264,24.1445],[120.8447,24.6889],[121.0179,24.9876],[121.4126,25.1886],[121.5403,25.2983],[121.7838,25.1956],[121.9928,24.9981],[121.849,24.8831],[121.8806,24.6056],[121.6437,24.1135],[121.6332,23.9775],[121.4097,23.1244],[121.2008,23.1662]]],[[[104.9159,33.589],[107.0083,33.7401],[109.0862,33.7762],[110.9858,34.1422],[111.6339,34.1796],[112.3523,33.9697],[113.1009,33.5733],[114.1936,32.7502],[114.6049,32.5731],[115.5546,32.4128],[116.907,32.5413],[117.7136,32.7748],[120.4831,33.8242],[120.8843,32.9797],[120.9004,32.6839],[121.058,32.53],[121.394,32.3231],[121.7137,32.037],[121.8895,31.7997],[121.9263,31.5694],[121.882,31.4357],[121.8921,31.0744],[122.0525,30.8547],[122.8683,30.161],[122.4313,29.9088],[122.3525,29.6401],[122.0217,29.4133],[122.0518,29.1296],[121.8507,28.8426],[121.9083,28.3968],[121.4058,28.0925],[121.1376,27.8561],[120.8484,27.8519],[120.7177,27.5556],[120.4645,27.165],[120.1258,26.8888],[120.1308,26.6651],[119.6373,26.7424],[119.8007,26.601],[119.8546,26.395],[119.6678,26.3546],[119.6403,26.0563],[119.7033,25.9607],[119.6258,25.7027],[119.8692,25.5671],[119.7363,25.4171],[119.1448,25.0668],[118.8334,24.8445],[118.7234,24.6897],[118.551,24.5399],[118.2501,24.4527],[117.5608,23.7523],[117.0967,23.4724],[116.8707,23.4172],[116.5166,22.9894],[115.8673,22.7905],[115.6445,22.8729],[115.3465,22.7413],[115.309,22.9033],[114.9732,22.6775],[114.7311,22.6238],[114.6707,22.7733],[114.5332,22.6747],[114.0557,21.902],[113.6923,21.9627],[113.4433,22.0668],[113.1747,22.0274],[113.0871,22.2266],[112.8839,21.6143],[112.5723,21.5922],[112.6466,21.8128],[112.4098,21.9041],[112.3706,21.7293],[112.1444,21.8054],[111.8343,21.7361],[111.704,21.7566],[111.5435,21.5275],[111.0255,21.4927],[110.7709,21.3964],[110.6768,21.4954],[110.1037,21.5542],[109.9149,21.4721],[109.5488,21.6884],[109.3868,21.4641],[109.1597,21.4164],[109.0717,21.6567],[108.8469,21.7992],[108.8394,21.694],[108.6148,21.6992],[108.6102,21.8911],[108.4804,21.8345],[108.5125,21.5895],[108.2355,21.5374],[107.8378,21.6437],[107.6231,21.6079],[107.3626,21.6441],[107.164,21.7507],[107.0528,21.9243],[106.7369,22.0076],[106.6798,22.2049],[106.5667,22.4302],[106.7079,22.5799],[106.8242,22.7778],[106.6383,22.8846],[106.4011,22.8821],[106.2076,22.9779],[105.9628,22.9509],[105.6018,23.076],[105.5388,23.249],[105.3475,23.3702],[105.3048,23.5284],[104.3449,23.5917],[101.5117,23.5583],[101.349,23.3655],[101.3426,22.9396],[101.0157,22.8484],[100.7044,22.9301],[100.6541,23.5124],[100.1805,24.2768],[99.8214,24.4111],[99.2154,24.222],[99.2382,24.1081],[99.112,24.0077],[99.1636,23.5637],[99.2933,23.3471],[99.3244,23.125],[99.235,23.0906],[99.0576,23.1174],[98.9442,23.1807],[98.9181,23.4159],[98.8257,23.5595],[98.8394,23.6745],[98.6952,23.873],[98.7666,23.9974],[98.8682,24.0847],[98.2927,24.1037],[97.9843,24.0342],[97.7179,23.8709],[97.5691,23.9718],[97.7431,24.1626],[97.689,24.3906],[97.5774,24.444],[97.5898,24.7698],[97.7845,24.88],[97.746,25.0846],[97.8354,25.2698],[97.9161,25.3593],[98.0715,25.3222],[98.1421,25.3972],[98.1835,25.57],[98.407,25.6249],[98.5064,25.8146],[98.6495,25.8078],[98.6498,25.9608],[98.6043,26.1323],[98.712,26.1448],[98.7098,26.3321],[98.7814,26.6226],[98.765,27.0381],[98.7036,27.3955],[98.6431,27.5692],[98.4683,27.6419],[98.4036,27.5444],[98.3156,27.5393],[98.2305,27.7319],[98.1834,27.9431],[98.3094,28.0488],[98.4958,28.2996],[99.1835,28.4542],[99.4044,28.4366],[100.6565,27.9178],[101.0614,28.199],[102.6368,29.9061],[102.799,30.9262],[102.9831,31.5807],[103.3355,32.0657],[104.1244,32.7881],[104.6047,33.1849],[104.9159,33.589]]]]}},{"type":"Feature","properties":{"name":"温带大陆","climate_zone":"温带大陆","region_code":"CN_CLIMATE_温带大陆","source_year":"derived","source_name":"本地中国气候类型矢量数据","license":"教学用矢量，来源标注 required","__fillColor":"#f97316","__fillOpacity":0.55,"__strokeColor":"#0f172a","__strokeWidth":0.6},"geometry":{"type":"Polygon","coordinates":[[[86.31388739298485,48.488851068353135],[86.38053319078251,48.30546197966414],[86.51327692409409,48.088757912021634],[86.9521973258218,47.638859674572515],[87.416163114266,47.260018081455556],[87.8883146287911,47.021953333315494],[89.31759988155363,46.82325561114106],[90.1882657260014,46.535722599856065],[90.98726292359274,46.149299009907516],[91.02115862999952,46.02655449114439],[90.71488009694451,45.727446553207315],[90.67790889328278,45.48114132836718],[90.80534086284939,45.33435227898011],[90.86537767713472,45.203492166464144],[91.09961727180628,45.213678233634035],[91.25682884200003,45.13391062262973],[91.42755634293987,45.15641466699665],[91.59183734760568,45.076928228233974],[91.8285459592218,45.08137817966372],[92.46418667844904,45.002705806192935],[92.82540816775916,45.04022508402374],[93.51521143218895,44.96158732806604],[94.20929223966074,44.668408351941295],[94.34433839847101,44.527903845432384],[94.51715187275806,44.479215376606284],[94.69492522177266,44.36626659215696],[95.05260650479775,44.25839495109251],[95.4162475862159,44.288361268014995],[95.36153853033409,44.19281755797198],[95.3895657644091,44.01903259712165],[95.49414538507709,44.00530380108076],[95.62474357872378,43.84369117172111],[95.86870948430297,43.33328615309489],[95.97788146412398,43.18463904984116],[96.33429380128469,42.92043886491961],[96.38751674517684,42.72458784416637],[97.15228910336113,42.79060127848141],[98.13384008032298,42.66170814195855],[99.51288206100428,42.56807201785593],[100.41979375671092,42.68478156256466],[100.72993916030298,42.67606987668642],[101.75303760182015,42.50861615641347],[102.02643613272544,42.276058957521904],[102.14668377349254,42.2100010777604],[102.380739210574,42.158969377201196],[102.74911760811032,42.135222696884696],[103.45912552006358,41.8733378939935],[103.99314141573512,41.80243069387181],[104.29964951450124,41.839511169268086],[104.52350351420331,41.822666769845625],[104.51771054727232,41.6608645857263],[104.8615845298158,41.65213560802296],[105.01341800705659,41.58689893314927],[105.1472476877577,41.68683827772126],[105.79999150933286,41.964012946292144],[106.82964927261088,42.294605344426984],[107.17034267674858,42.34188077210874],[107.3068967676069,42.412905305780654],[108.54397373294327,42.441827920174624],[108.8169603923233,42.40834149179077],[108.9818126026768,42.448717902336654],[109.30574217483873,42.440164441231154],[109.59074167594957,42.50446993947749],[110.43331482306418,42.779827621067085],[110.95299135550371,43.2770881250059],[111.42356818437786,43.48153954943829],[111.58559772506895,43.50262435390042],[111.76177068183172,43.64792235517355],[111.95500773604726,43.715462465626864],[111.89982675958824,43.89094452473426],[111.64357153721117,44.07421511151205],[111.42224515965657,44.387893434521814],[111.56064914570997,44.60191909845278],[111.6519233396189,44.818593875258955],[111.78594908230777,44.99079904095564],[111.96004674205903,45.07660875181695],[112.36376995054513,45.06151115607802],[112.77071104966979,44.860057629023004],[113.66760934769934,44.76369646695691],[113.80567523073458,44.85119970119033],[114.13096807921494,44.97230635698536],[114.46781222540001,45.22373544273731],[114.53935279294505,45.36718968115636],[114.79449805061523,45.421010037896004],[115.36465601734085,45.39136906913702],[115.76988515240434,45.51129385152922],[115.94733902986334,45.63523096565787],[116.15510632559362,45.685098780549694],[116.27706834931863,45.79087496260312],[116.26084264605291,45.94920197845657],[116.55724545869072,46.24700930891455],[116.82466058178832,46.37975887972514],[117.23885861208625,46.36465440363445],[117.3805934938312,46.44567448267418],[117.41494280577342,46.58046784148077],[117.57143423405634,46.5956514838883],[117.77261085224707,46.535844996980316],[118.19154248962275,46.68567168269871],[118.43198316948774,46.70990203696154],[118.73019616922109,46.68862248000332],[118.81750363388957,46.746375438646176],[118.98244119263926,46.74139132529772],[119.16795861421947,46.65151379897384],[119.76345874223749,46.619162346374765],[119.90902840761922,46.692331536561646],[119.90900135455118,46.85155715570679],[119.74284936776728,47.142440910052876],[119.35627403186153,47.47435088946571],[119.13934940251397,47.566691623157375],[118.59790713767649,47.95008853134101],[118.17982097973666,48.039074310625345],[117.88799901011981,48.02683686873361],[117.64353659428862,47.886022860652204],[117.3552103243436,47.65286921091496],[117.10420336017357,47.81134482581639],[116.84200435100605,47.89532121335071],[116.48003034777217,47.84729769416387],[116.19870048436486,47.85514265423911],[115.93489807137556,47.68095250086215],[115.76715318033227,47.792436427439156],[115.55675529885411,47.99359531641194],[115.52527125665831,48.13883145783718],[115.7213887637086,48.22424156651022],[115.80668357864081,48.32504859122514],[115.80581918302077,48.54278667333001],[116.04159513357982,48.78661870643683],[116.0642744819332,48.910956338995696],[116.70429031143232,49.833413883596876],[117.08013040501375,49.68007029232495],[117.86425039196973,49.50890693589929],[117.91877298116341,49.593969046056024],[118.08835726215001,49.63590231749781],[118.46362816833376,49.823043336739005],[118.56982206543722,49.92773081105805],[119.03743243021005,49.98579727641156],[119.17490778281258,50.04138496194116],[119.32416678406183,50.16128393063083],[119.3508209689093,50.326339196432706],[119.15517400805547,50.368517893074056],[119.24220726976931,50.45010546643747],[119.32385747421402,50.62261848684238],[119.46563063642652,50.72152980914414],[119.50733617377144,50.88900930023412],[119.7362066799934,51.08743859512145],[119.79952899338356,51.23400687748451],[119.91832364289492,51.36969566293925],[120.08405648972045,51.644734505550936],[120.65421415020492,51.940061612733636],[120.7544304150044,52.14088025842633],[120.71190230226978,52.259260893609564],[120.6216394163274,52.34189706444333],[120.72735455425004,52.53632336583214],[120.42230747729582,52.632280449304695],[120.20509110636863,52.58639890434399],[120.03658100186438,52.61344348586317],[120.03771887950458,52.749373037756115],[120.23096892067001,52.84625785316479],[120.78330220747793,53.222924458733345],[121.65564535971765,53.37418570301387],[121.33464273779451,52.75592893023282],[120.88843342336956,51.60833897564886],[120.4524639065546,50.76440252412062],[120.10430208868638,49.91169668072039],[119.95547174200213,49.287760323511],[119.86871501413098,47.73664254191382],[120.01276491353828,47.18739206906423],[120.27466179328376,46.74958014708379],[120.49328340270449,46.454796825017276],[121.1137611561278,45.90150066216751],[122.02859009442734,45.26211668150216],[122.78072021013608,44.79431058591309],[123.3850238740096,44.09178030990657],[123.39128308159731,43.87982410818737],[123.65211242770448,43.61077733232206],[123.60583661675463,43.427136686857914],[123.25744782147832,43.40093995517012],[122.5800397638351,43.54837867217515],[122.21138383885766,43.51446127577628],[121.93300337888792,43.3519512766298],[120.97107874381207,42.126479240016415],[120.44770836443006,41.62780652522895],[119.866175536097,41.21257846198411],[119.27907742959492,40.88313546107251],[118.5587669658387,40.67380701124829],[116.27069193735697,40.6861713768821],[114.77101273593719,40.343127186885056],[114.2812988747041,40.33093455008023],[113.54068942248017,39.988637594540826],[111.65712128974911,39.35524895931878],[110.95989241750216,38.92941089862149],[110.6801080058119,38.809522059976395],[109.98277824515766,38.41027123428338],[109.674059465013,38.153124115516135],[109.14296398276339,37.5920015282777],[108.59642500739557,37.11512635627289],[108.07314124789947,36.822414035805316],[106.38260876215392,36.2703296565753],[105.2794563189435,35.7774851548054],[104.61144749533352,35.26297528900153],[104.16946227339339,35.22850837011852],[103.5432654702976,35.479959975270845],[103.04996307200756,35.90043851066054],[102.93932352291668,36.35808160718824],[103.20513297805867,36.628988324661535],[103.33696526968986,36.97207122254736],[103.23680722063132,37.220735375058986],[103.00971453208793,37.498872003756865],[102.09665997219699,38.09974807858276],[101.17907071344185,38.49770886357572],[100.01431424894514,38.90857244001582],[98.22249466592162,39.18512558164311],[96.20030974301186,39.366509082125184],[95.33969759220383,39.32515722095933],[93.19224996062655,39.00043369136871],[91.3808557564761,38.89896380078091],[90.05665714321368,38.7447033766965],[87.08948238712087,37.969635739219804],[83.85168470811973,36.54639090196021],[82.73138383810803,36.1604757171039],[82.15782925200455,36.104854930333985],[81.12411718738817,36.103610146649345],[79.94665435796801,36.26807268412728],[78.82586682648785,36.53150937408495],[78.3037344471606,36.70230208851159],[77.67387463775896,37.09114232589903],[77.1714098418738,37.52599550407788],[76.59049414918034,38.147523032989994],[76.28200765477223,38.576199017845816],[76.0521763569889,38.99348068825849],[76.05930499704367,39.26890636104942],[76.37790384159857,39.4183780723511],[76.95242413841486,39.583584782910904],[77.90057467074095,39.76594752663933],[80.2302801730999,40.558084543527684],[81.75718043673086,41.337281531357824],[82.55315044262458,41.656567334215595],[83.31115289274882,41.85822337735654],[83.96489008299115,41.88508920834737],[86.43670509038758,41.61612167867729],[87.23406322914126,41.46592959611155],[88.16685084835758,41.38570214897793],[89.42158758899294,41.42252654108446],[90.34248520458907,41.49721866831515],[92.07779145813814,41.81614888088426],[92.61457695155325,42.027096859026805],[92.77898270538157,42.28815237327046],[92.59970482083627,42.56575208281969],[92.07662519153025,42.76406103858563],[91.58424958512572,42.783299136635684],[90.86369628064955,42.88206159878315],[90.61116486059986,42.950947773724444],[90.82084834378087,43.0297777614921],[91.45755152513186,43.169861237953555],[92.09623157901918,43.16455271796143],[92.73632376498698,43.071063283380255],[93.05509012760207,42.90940267235045],[94.4979811482471,42.88485739475407],[94.87100356473832,42.950602229192334],[94.92809123639829,43.10616313507492],[94.65562099807585,43.34166863032152],[94.00400848016065,43.51896447508325],[93.35460207771554,43.57984349654692],[92.3672988337281,43.57897045055678],[90.59771953242748,43.472932921357454],[89.5024132564451,43.34491226356187],[88.06553280857143,43.0897926117979],[87.37472469939338,43.02193771866684],[86.78226699949846,43.0401796623096],[85.00492127184442,43.2625143180665],[84.13579611307091,43.42172313435237],[82.55824888372716,43.781164102588214],[81.75021265510998,44.03444786833038],[81.33826250368496,44.23609880070566],[81.16736313290986,44.37187934416123],[81.28867836234969,44.49966345088837],[81.7435877347031,44.66422419696691],[82.39572962483142,44.78158946784855],[83.16579056186723,44.83665088892176],[84.73443827725306,44.802682631634774],[85.68912819372524,44.92819100403315],[86.44426417045332,45.13612454638741],[87.0130899940561,45.38328233880459],[87.29333105033803,45.68826919870952],[87.48544561824711,46.020389741130266],[87.47640419912071,46.43393822588514],[87.1121134122059,46.804192098552],[86.34050764752082,47.0931222480016],[85.68211973094584,47.22276509613281],[85.68463474148683,47.422789852728755],[85.60974579573524,47.51988048083858],[85.54146351846467,48.01475932778101],[85.57416108102342,48.15702943129132],[85.71012350824746,48.353652569764606],[85.85107080883266,48.42877498323612],[86.23397538486637,48.4327424517756],[86.31388739298485,48.488851068353135]]]}},{"type":"Feature","properties":{"name":"温带季风","climate_zone":"温带季风","region_code":"CN_CLIMATE_温带季风","source_year":"derived","source_name":"本地中国气候类型矢量数据","license":"教学用矢量，来源标注 required","__fillColor":"#eab308","__fillOpacity":0.55,"__strokeColor":"#0f172a","__strokeWidth":0.6},"geometry":{"type":"Polygon","coordinates":[[[121.66950500601882,53.382510316302316],[122.2674625020222,53.47022452521462],[122.55437414077272,53.45636720297614],[122.95176880194697,53.485284320130724],[123.31883325413365,53.55117060537258],[123.5993249176434,53.55015114712163],[124.22419935941743,53.376898705952655],[124.39995943593912,53.24778680488565],[124.89256223909746,53.13602055110965],[125.203112771276,53.193746390261815],[125.73460482936869,52.97489154454086],[125.70055282573531,52.87005374183339],[125.87709486266634,52.84041591251282],[126.03991705685148,52.72845621016731],[126.09431934014363,52.59344035710152],[126.2765448122127,52.45840336955995],[126.37147566337539,52.26814128188601],[126.47251585860708,52.160495018162834],[126.436291286205,52.00673652195954],[126.60320112542627,51.79107215556416],[126.71393821778925,51.56829857354692],[126.8824796449617,51.40960727379296],[126.95872116609922,51.27881239718683],[126.99073405628232,51.01700511421261],[127.21541663873697,50.79044484357315],[127.35499703309121,50.555476556937606],[127.32462781492764,50.34157125874073],[127.51528841967898,50.25415083167917],[127.58242245770829,50.14234952607236],[127.48910931327596,50.00229174971273],[127.54838549734268,49.79574412598183],[127.7982948637917,49.59992226738371],[128.06162554556855,49.55505750502835],[128.73112409661834,49.59167287757694],[129.05445073188855,49.368948829277684],[129.18887610902084,49.39459487241639],[129.37407471948987,49.38226726301993],[129.42555513290853,49.44264967418621],[129.56269774394423,49.2858575696097],[129.73568472646852,49.27246870865649],[129.75429903230352,49.19374816477261],[130.03290038169538,48.98872920764661],[130.30048896687435,48.87156446407655],[130.66689684005536,48.83529041318316],[130.52558235281586,48.63378892410715],[130.6076986284472,48.52287011841958],[130.7360579743587,48.51407616271413],[130.81246163781813,48.34099260772679],[130.80141614966323,48.26172778002834],[130.65422707042273,48.09819979306396],[131.07134154185826,47.68482595708992],[131.37650439807607,47.72901987093277],[131.61410686520853,47.65357680934964],[131.948927529153,47.66208025439386],[132.1898688336536,47.710495429936095],[132.58459905013024,47.72642245063502],[132.67904060313307,47.86740650627993],[133.11233507439366,48.12830347693191],[133.41729356414496,48.12002479579523],[134.19682630899527,48.38499406001087],[134.55734352809122,48.40767813069737],[134.76823115461272,48.35802688073838],[134.56947765818512,48.04359635270629],[134.76029509521507,47.76383365254979],[134.72519623113425,47.67086222952223],[134.47730932056626,47.44342772351014],[134.25662301894292,47.382291887657324],[134.22262099688987,47.15663734332395],[134.06790714847952,46.935286807667936],[134.0134696719424,46.66030308844537],[133.86545594078353,46.51225101802968],[133.91469335814836,46.33273851017972],[133.73509061579313,46.053785606612614],[133.46473850600944,45.81834128476332],[133.34369903471597,45.56630582900632],[133.13059531292598,45.40270624077202],[133.13003742498034,45.17445331276595],[133.0358117782211,45.056006958240964],[132.81770370518925,44.95659956194853],[132.69223784711625,44.70156268804251],[132.51373388781104,44.49422906391619],[132.22523984675547,44.66205925756247],[132.11998035835865,44.84476609796429],[132.07781492138145,45.08134419157673],[131.92122686153579,45.3054930308861],[131.5352834068391,45.01710995515039],[131.07533468940275,44.888312291641185],[131.05393969002083,44.78476181989542],[131.28914796940217,44.09152775790157],[131.22359012442146,43.760198788221125],[131.3068933920231,43.389912984278794],[131.11678892367536,42.920465148147244],[130.56961187688137,42.84393336951682],[130.36788950128707,42.76302473034383],[130.61649178174554,42.62890781343096],[130.5501072480046,42.503705593362625],[130.38148671521168,42.60060665628816],[130.11400331501787,42.98861359143442],[129.90371991072817,42.979599746570656],[129.72404396217843,42.44638407918299],[129.52078330489667,42.39140801750413],[129.349597805702,42.40629317222681],[129.2555442059731,42.32785961174509],[129.18766784935153,42.19650805472166],[129.00664099059034,42.09734198520238],[128.9169500992281,42.01169566795191],[128.05095116238442,42.006064850774635],[128.09776607501394,41.919298003221975],[128.1027155494678,41.80148046083875],[128.2961433390112,41.628828577005656],[128.28798524268558,41.532937337095746],[128.11842887045216,41.373101315787125],[127.86839881052079,41.434136582783715],[127.64633144522062,41.424759088556925],[127.1401272975987,41.52423597673712],[127.12285699519154,41.61012307339136],[127.03655124626263,41.74067605847209],[126.96713202341257,41.77510540087538],[126.84866020279068,41.75073060497974],[126.56972750228091,41.58484618464684],[126.4951770766308,41.35351604653297],[126.12569920748687,41.04475659792063],[126.02009998385033,40.90352355635037],[125.7318400594743,40.869757460105546],[125.6713433159715,40.76413676483363],[125.58911481463217,40.78218461946001],[125.38594458973994,40.63989547385111],[125.31480045261803,40.647890791686855],[125.01063813263082,40.53679852942617],[125.03220431602179,40.46280270029582],[124.90614266718865,40.4843839282665],[124.32990229558648,40.05448353356723],[124.3613673770965,40.002940484567574],[124.12619868132623,39.82924956235392],[123.95446038437713,39.81326503817418],[123.6528484194887,39.842582166557634],[123.59483559106961,39.778027145790276],[123.51180430225077,39.78582344609587],[123.44119166546098,39.73189731258386],[123.40084287775929,39.79863499438393],[123.25196283438477,39.69237350007017],[123.05745397922715,39.66541130244102],[122.7373322395772,39.56188428654806],[122.20866702546813,39.252948941934804],[122.0750547969929,39.067507146866475],[121.90285428948735,39.07704716873297],[121.9051959209702,38.96709740594358],[121.86287991772303,38.94675860137429],[121.76931836698832,39.02591484870066],[121.68021080748949,39.00944406892284],[121.61126396617802,38.94257694031353],[121.71516787338048,38.88400345439061],[121.276285545244,38.79228504330486],[121.15942994731368,38.72230369678974],[121.0867268853925,38.906452015190354],[121.15955369169684,38.950503501071616],[121.22811993556543,38.9392092907611],[121.35875660755083,39.041481651111155],[121.43503216906007,39.020358741328565],[121.58408027412445,39.06214900759283],[121.64899680509563,39.15484065439175],[121.70834832984198,39.339722732745045],[121.91078973499883,39.40059128397127],[121.77236778336439,39.389884818701276],[121.64623399457442,39.318094723116936],[121.3871464436836,39.36772628559577],[121.24868956139352,39.41729125483693],[121.29579941603313,39.59962467537079],[121.41840975249607,39.62299955474247],[121.492989535533,39.68966300616056],[121.52745653494502,39.794067396745994],[121.59577645636243,39.87348083437663],[121.86595253836629,39.986795606681305],[122.27834153537654,40.459321658202875],[122.10483803772897,40.69923478696839],[121.82253966515384,40.934385015561105],[121.58665484315985,40.843886481032534],[121.51097356310459,40.89543905177454],[121.18649611031671,40.927925285217384],[121.08049982575987,40.83542858644795],[120.99104442212312,40.83256245460739],[120.92608454542783,40.742943295448335],[121.0189312227483,40.711204305755416],[120.82535568414423,40.649022063856904],[120.5857069563986,40.459803205735454],[120.59020683530494,40.36317937005994],[120.49599572812056,40.24939928817928],[119.54967502194506,39.8995048892083],[119.32341720226815,39.66891176720904],[119.25773153587558,39.51853251238903],[119.2987143771023,39.43449552072965],[118.97859450290879,39.19475868330149],[118.83909895886984,39.14608602789561],[118.66371080684902,39.16357518300939],[118.5574143628637,39.1269350123728],[118.44890954544469,39.0290496869886],[118.25137830798798,39.04281342858965],[118.06242036887748,39.222397743542956],[117.8572310658298,39.18189691549978],[117.75219787119472,39.10439159277502],[117.77889732276583,38.92605740999587],[117.59148234376286,38.806464814823876],[117.60931471400572,38.72611628605511],[117.56294157283862,38.61380708430921],[117.69996574371561,38.38279699948609],[117.9750163155821,38.21894032325246],[118.530119223863,38.052658433893896],[118.61346579106306,38.105096782753115],[118.74858300441177,38.11097612386245],[118.79595746392681,38.14454897700247],[118.94312707542451,38.10192338777158],[118.96195074154552,38.030685136153046],[119.1140961596079,37.850904475258254],[119.28925069809348,37.804702773420104],[119.2842507517556,37.66379683343309],[119.03492002691554,37.642529457871156],[118.95425915979959,37.540890640844474],[118.98029243138177,37.316705826426016],[119.19293914110924,37.16972591625571],[119.4928689313594,37.13972321397561],[119.5750525826623,37.09598795621867],[119.72912486310376,37.12034048580293],[119.89937800384112,37.26955657517946],[119.90442172813397,37.38044036574482],[120.12829320847499,37.468325294755786],[120.26368838178026,37.56125011697139],[120.3095154783277,37.663923842284994],[120.71976193791349,37.82340996200496],[120.90006554909247,37.81974180153488],[121.19813843863459,37.57829761700579],[121.40578621976519,37.59567371575386],[121.39894196154407,37.54634820615321],[121.52565584281024,37.45545955180431],[121.95454454926306,37.47863169314848],[122.02149690903389,37.5272226383815],[122.15804603502922,37.538749980956496],[122.13489767306284,37.49361692944052],[122.15527140059436,37.43944540166887],[122.22913856297434,37.45234796761399],[122.47298634137398,37.39788953840054],[122.69856181900569,37.40652664651241],[122.60610309143603,37.375817829881285],[122.57072468882623,37.26778196795017],[122.62540652435503,37.200813131170804],[122.50596861985285,37.15847177733018],[122.47498859223953,37.07573753313547],[122.48193268080352,37.03321029841489],[122.55938816054127,37.047532052110455],[122.52078777349728,36.90828814158883],[122.46232790337486,36.918885146767614],[122.4228307535595,36.86465145463641],[122.28197730377343,36.83402168605295],[122.12776495858625,36.911987126127165],[122.12321724523487,36.96242660606817],[122.04375092420999,36.885327925385276],[122.00030273869046,36.98089677194968],[121.62783339162758,36.80699223608105],[121.38646887438075,36.74882635964878],[121.0008167188646,36.60012797311673],[120.89369179760754,36.65209355501699],[120.81036260193348,36.602186336588574],[120.97374802142242,36.537841055103385],[120.94847180750565,36.45170226351777],[120.85275401932248,36.373433461194836],[120.84944570763773,36.43004769234233],[120.78025391119236,36.464784665103565],[120.72651866726558,36.43977419610145],[120.70493639539745,36.36460399209797],[120.73472304076445,36.33428229745334],[120.64983893469253,36.319990720057596],[120.69216141330718,36.153282487600244],[120.4262834454603,36.05646560232898],[120.30279322592816,36.089594309832975],[120.34468635310446,36.20874803040962],[120.29377346788517,36.236574106116166],[120.31346149729923,36.186640277641004],[120.20340943539925,36.21514058131616],[120.12412894483109,36.16093403930496],[120.10594536605598,36.10035515189876],[120.29929101916625,35.98511178188214],[120.03438400926767,35.836532703671594],[120.01062185948427,35.73005542721352],[119.96211821948631,35.756958283722696],[119.88660719635301,35.62881041364113],[119.74127677527983,35.6340284399228],[119.3960482218528,35.219636571232165],[119.37564767201916,35.12620862666845],[119.20738453188142,35.01229628871977],[119.1842832023056,34.88580321030206],[119.23633831274591,34.77252673736575],[119.47312338970325,34.71838991493804],[119.49765558063528,34.639700304676396],[119.69333847898142,34.528091304160284],[120.25356612463355,34.31788010681796],[120.48138413346385,33.83329594042457],[117.71360076954609,32.774835670518826],[116.90697962841165,32.54132824538715],[115.55860032047431,32.405929897681226],[114.60493692615391,32.57312675876462],[114.19363067597116,32.75016787043369],[113.10093252381088,33.573287355327615],[112.35233250136599,33.96966541235577],[111.6339332867143,34.17959992845444],[110.98584732912767,34.14224971427548],[109.08615446828621,33.776205175555965],[107.00827225720467,33.74014345100813],[104.91585768960074,33.58897978126582],[104.6256069226009,33.6634838605668],[103.70311941245087,34.00425142062921],[102.84124246572307,34.40479922367168],[102.05984409964083,34.94352026949016],[101.61149764487526,35.48360114789539],[101.53182627020487,35.940620971304824],[101.87907357122667,36.52111371317373],[103.00971453208793,37.498872003756865],[103.23680722063132,37.220735375058986],[103.3369652696899,36.97207122254736],[103.20513297805867,36.628988324661535],[102.93932352291668,36.35808160718824],[103.0499630720076,35.90043851066054],[103.5432654702976,35.479959975270845],[104.16946227339344,35.22850837011852],[104.61144749533352,35.26297528900153],[105.2794563189435,35.7774851548054],[106.38260876215392,36.2703296565753],[108.07314124789947,36.822414035805316],[108.59642500739557,37.11512635627289],[109.14296398276339,37.5920015282777],[109.674059465013,38.153124115516135],[109.98277824515766,38.41027123428338],[110.6801080058119,38.809522059976395],[110.95989241750216,38.92941089862149],[111.65712128974911,39.35524895931878],[113.54068942248017,39.988637594540826],[114.2812988747041,40.33093455008023],[114.77101273593719,40.343127186885056],[116.27069193735697,40.6861713768821],[118.5587669658387,40.67380701124829],[119.27907742959492,40.88313546107251],[119.866175536097,41.21257846198411],[120.44770836443006,41.62780652522895],[120.97107874381207,42.126479240016415],[121.93300337888792,43.3519512766298],[122.21138383885766,43.51446127577628],[122.5800397638351,43.54837867217515],[123.25744782147832,43.40093995517012],[123.60583661675463,43.427136686857914],[123.65211242770448,43.61077733232206],[123.39128308159731,43.87982410818737],[123.3850238740096,44.09178030990657],[122.78072021013608,44.79431058591309],[122.02859009442734,45.26211668150216],[121.1137611561278,45.90150066216751],[120.49328340270449,46.454796825017276],[120.01276491353828,47.18739206906423],[119.86871501413098,47.73664254191382],[119.95547174200213,49.287760323511],[120.10430208868638,49.91169668072039],[120.4524639065546,50.76440252412062],[120.88843342336956,51.60833897564886],[121.33464273779451,52.75592893023282],[121.66950500601882,53.382510316302316]]]}},{"type":"Feature","properties":{"name":"热带季风","climate_zone":"热带季风","region_code":"CN_CLIMATE_热带季风","source_year":"derived","source_name":"本地中国气候类型矢量数据","license":"教学用矢量，来源标注 required","__fillColor":"#16a34a","__fillOpacity":0.55,"__strokeColor":"#0f172a","__strokeWidth":0.6},"geometry":{"type":"MultiPolygon","coordinates":[[[[110.6654,21.281],[110.5781,21.1063],[110.5793,20.9996],[110.5021,20.9155],[110.4733,20.9859],[110.2607,20.9907],[110.2897,21.1008],[110.2057,21.069],[110.1685,20.9636],[110.1868,20.8707],[110.3236,20.8471],[110.4655,20.7242],[110.5247,20.4924],[110.4959,20.3775],[110.3188,20.2652],[110.3663,20.0856],[110.5515,20.0121],[110.5959,20.1052],[110.7312,20.1747],[110.9282,20.0148],[111.0285,19.6577],[110.8444,19.5444],[110.6538,19.3138],[110.5126,18.9466],[110.5285,18.8027],[110.5036,18.7609],[110.4121,18.6981],[110.2776,18.6664],[110.0918,18.4982],[110.055,18.3917],[109.807,18.4009],[109.7399,18.3456],[109.7413,18.2424],[109.6648,18.2177],[109.3306,18.3042],[109.1722,18.2891],[109.0746,18.3697],[108.6828,18.5276],[108.691,18.7462],[108.6395,18.8587],[108.6478,18.9831],[108.6128,19.1001],[108.6726,19.1668],[108.6309,19.2155],[108.7094,19.3719],[109.2108,19.6886],[109.1703,19.7968],[109.2907,19.912],[109.5165,19.8458],[109.5354,19.9325],[109.6379,19.9932],[109.7164,20.0055],[109.8745,19.9671],[109.9204,19.988],[109.9678,19.9526],[110.1252,20.0016],[110.1813,20.0627],[110.2593,20.0268],[110.3045,20.0636],[110.2756,20.2575],[110.0652,20.2848],[109.921,20.2389],[109.924,20.3422],[109.8649,20.4032],[109.9174,20.4158],[109.9883,20.3738],[110.0106,20.4257],[109.858,20.5037],[109.8612,20.5678],[109.762,20.6787],[109.668,20.8964],[109.6847,21.1034],[109.7863,21.3361],[109.8825,21.3576],[109.9211,21.4698],[110.1037,21.5542],[110.6768,21.4954],[110.7731,21.3977],[110.6654,21.281]],[[110.7698,21.3958],[110.727,21.4427],[110.6768,21.4954],[110.7698,21.3958]]],[[[120.6287,22.985],[120.8319,22.9886],[121.2008,23.1662],[121.4169,23.1218],[120.9705,22.5334],[120.9221,22.3983],[120.8483,21.905],[120.7125,21.964],[120.6918,22.1801],[120.5591,22.3514],[120.3967,22.4775],[120.2803,22.62],[120.1692,22.9548],[120.0588,23.0446],[120.0669,23.1684],[120.1492,23.3923],[120.4401,23.3777],[120.6287,22.985]]],[[[100.1805,24.2768],[100.6541,23.5124],[100.7044,22.9301],[101.0157,22.8484],[101.3426,22.9396],[101.349,23.3655],[101.5117,23.5583],[104.3449,23.5917],[105.3048,23.5284],[105.3475,23.3702],[105.2369,23.2894],[104.8054,23.1177],[104.8439,22.9304],[104.7255,22.8505],[104.4198,22.7335],[104.3294,22.7277],[104.2594,22.8449],[104.0415,22.7275],[104.0118,22.5235],[103.8618,22.587],[103.6544,22.7921],[103.4731,22.6435],[103.387,22.7827],[103.1771,22.5656],[102.9813,22.4812],[102.8262,22.6256],[102.5134,22.7721],[102.441,22.7229],[102.2608,22.4397],[101.9093,22.4379],[101.7283,22.4977],[101.5929,22.2688],[101.6314,22.0131],[101.7721,21.837],[101.7551,21.7254],[101.816,21.6258],[101.7297,21.3425],[101.8258,21.2095],[101.6964,21.1565],[101.5935,21.2011],[101.2734,21.1939],[101.2012,21.3228],[101.1201,21.7775],[100.823,21.6233],[100.5966,21.4618],[100.4379,21.5288],[100.2813,21.4867],[100.1436,21.5027],[100.1738,21.6515],[99.9976,21.7033],[99.9814,21.9287],[99.8768,22.0419],[99.4652,22.1301],[99.1953,22.1343],[99.3515,22.351],[99.3854,22.5725],[99.3607,22.6671],[99.4388,22.92],[99.5626,22.9428],[99.4884,23.0828],[99.3228,23.1221],[99.2933,23.3471],[99.1636,23.5637],[99.112,24.0077],[99.2382,24.1081],[99.2154,24.222],[99.8214,24.4111],[100.1805,24.2768]]]]}},{"type":"Feature","properties":{"name":"高山高原","climate_zone":"高山高原","region_code":"CN_CLIMATE_高山高原","source_year":"derived","source_name":"本地中国气候类型矢量数据","license":"教学用矢量，来源标注 required","__fillColor":"#06b6d4","__fillOpacity":0.55,"__strokeColor":"#0f172a","__strokeWidth":0.6},"geometry":{"type":"MultiPolygon","coordinates":[[[[86.3405,47.0931],[87.1121,46.8042],[87.4764,46.4339],[87.4854,46.0204],[87.2933,45.6883],[87.0131,45.3833],[86.4443,45.1361],[85.6891,44.9282],[84.7344,44.8027],[83.1658,44.8367],[82.3957,44.7816],[81.7436,44.6642],[81.2887,44.4997],[81.1674,44.3719],[81.3383,44.2361],[81.7502,44.0344],[82.5582,43.7812],[84.1358,43.4217],[85.0049,43.2625],[86.7823,43.0402],[87.3747,43.0219],[88.0655,43.0898],[89.5024,43.3449],[90.5977,43.4729],[92.3673,43.579],[93.3546,43.5798],[94.004,43.519],[94.6556,43.3417],[94.9281,43.1062],[94.871,42.9506],[94.498,42.8849],[93.0551,42.9094],[92.7363,43.0711],[92.0962,43.1646],[91.4576,43.1699],[90.8208,43.0298],[90.6112,42.9509],[90.8637,42.8821],[91.5842,42.7833],[92.0766,42.7641],[92.5997,42.5658],[92.779,42.2882],[92.6146,42.0271],[92.0778,41.8161],[90.3425,41.4972],[89.4216,41.4225],[88.1669,41.3857],[87.2341,41.4659],[86.4367,41.6161],[84.6149,41.8314],[83.9649,41.8851],[83.3112,41.8582],[82.5532,41.6566],[81.7572,41.3373],[80.2303,40.5581],[79.5106,40.2945],[77.9006,39.7659],[76.9524,39.5836],[76.3779,39.4184],[76.0593,39.2689],[76.0522,38.9935],[76.282,38.5762],[76.5905,38.1475],[77.1714,37.526],[77.6739,37.0911],[78.3037,36.7023],[78.8259,36.5315],[79.9467,36.2681],[81.1241,36.1036],[82.1578,36.1049],[82.7314,36.1605],[83.8517,36.5464],[87.0895,37.9696],[90.0567,38.7447],[91.3809,38.899],[93.1922,39.0004],[95.3397,39.3252],[96.2003,39.3665],[98.2225,39.1851],[100.0143,38.9086],[101.1791,38.4977],[102.0967,38.0997],[103.0097,37.4989],[101.8791,36.5211],[101.5318,35.9406],[101.6115,35.4836],[102.0598,34.9435],[102.8412,34.4048],[103.7031,34.0043],[104.6256,33.6635],[104.9159,33.589],[104.6047,33.1849],[104.1244,32.7881],[103.3355,32.0657],[102.9831,31.5807],[102.799,30.9262],[102.7275,30.3692],[102.6075,29.8843],[101.9954,29.1739],[101.445,28.6568],[101.0614,28.199],[100.6796,27.927],[100.2414,28.0729],[99.7931,28.2998],[99.1833,28.465],[98.4958,28.2996],[98.3887,28.1179],[98.1877,27.9424],[98.0523,28.2046],[97.73,28.4793],[97.591,28.5223],[97.5018,28.4044],[97.4744,28.281],[97.3571,28.2071],[97.3367,28.1276],[97.3894,27.9947],[97.381,27.8821],[97.2157,27.8627],[97.0974,27.775],[96.2855,28.2101],[95.704,28.2638],[95.3953,28.1432],[95.2864,27.9447],[94.498,27.5999],[94.3288,27.5882],[94.1943,27.5111],[93.8874,27.2124],[93.8397,27.0461],[93.5309,26.9358],[92.9827,26.9139],[92.5964,26.952],[92.1748,26.8566],[92.032,27.1246],[92.08,27.3618],[92.0291,27.44],[91.8841,27.4786],[91.7076,27.4782],[91.6125,27.5406],[91.5927,27.9062],[91.466,28.0064],[91.3425,28.0632],[91.1639,27.9585],[91.0633,27.8524],[90.9755,27.9326],[90.7999,28.017],[90.4099,28.069],[90.1653,28.1889],[89.7799,28.2027],[89.5888,28.1443],[89.2682,27.8284],[89.1479,27.6534],[89.1248,27.5423],[89.1564,27.3341],[89.0707,27.249],[88.9829,27.2168],[88.7721,27.5529],[88.8711,27.8231],[88.8013,28.0332],[88.6736,28.0722],[88.5509,28.0496],[88.184,27.9465],[88.0976,27.8678],[87.7975,27.9061],[87.6655,27.8102],[87.5005,27.8458],[87.1946,27.8205],[86.9842,27.9494],[86.7513,28.041],[86.5658,28.0691],[86.4714,27.9476],[86.2968,27.9725],[86.132,28.1172],[86.0983,27.9224],[85.9835,27.9203],[85.8988,28.1024],[85.6617,28.3043],[85.2553,28.2937],[85.119,28.3373],[85.1147,28.4268],[85.1877,28.5401],[85.1325,28.6759],[84.8928,28.5895],[84.7217,28.627],[84.5822,28.7354],[84.4605,28.7517],[84.3248,28.8629],[84.2258,28.896],[84.172,29.1505],[84.0782,29.2877],[83.9336,29.3195],[83.6562,29.2007],[83.4456,29.3257],[83.2826,29.5581],[82.7965,29.7184],[82.4966,29.9465],[82.1821,30.0967],[82.0653,30.3489],[81.5969,30.4141],[81.4601,30.4053],[81.396,30.3246],[81.3519,30.1779],[81.2723,30.1529],[81.2883,30.0752],[81.1947,30.0216],[81.0784,30.1245],[81.0323,30.2466],[80.8493,30.3165],[80.6136,30.4588],[80.5499,30.449],[80.1917,30.5824],[80.0447,30.5966],[79.9502,30.7505],[79.7546,30.9449],[79.5865,30.946],[79.4189,31.052],[79.2862,30.9664],[79.1092,30.9973],[78.9696,31.1131],[78.855,31.2948],[78.7667,31.3521],[78.7594,31.5493],[78.8229,31.6336],[78.7032,31.7815],[78.6912,31.8724],[78.7655,31.9492],[78.4665,32.1303],[78.4883,32.2772],[78.4344,32.4893],[78.4564,32.5787],[78.7258,32.7097],[78.8791,32.3995],[78.9722,32.3387],[79.1034,32.3739],[79.2483,32.517],[79.2948,32.6397],[79.2319,32.8827],[79.156,33.0335],[79.153,33.18],[78.8383,33.441],[78.7393,33.6249],[78.7756,33.7482],[78.7423,33.9962],[78.6699,34.0921],[78.9684,34.2719],[78.9608,34.3873],[78.3931,34.6037],[78.2449,34.7115],[78.2024,34.892],[78.0083,35.296],[78.0663,35.4859],[77.3479,35.4967],[76.7666,35.661],[76.4917,35.8899],[76.3564,35.8435],[76.1536,35.8315],[76.0955,36.0187],[75.9511,36.0795],[76.0224,36.2364],[76.02,36.3893],[75.9425,36.5514],[75.7553,36.7306],[75.5338,36.7736],[75.4323,36.7612],[75.3735,36.9493],[75.0223,37.0134],[74.9204,36.9468],[74.7234,37.0587],[74.6232,37.0613],[74.4854,37.186],[74.7786,37.2554],[75.0255,37.1975],[75.1272,37.3357],[75.0398,37.5123],[74.8922,37.5828],[74.92,37.9748],[74.8048,38.1995],[74.5628,38.4589],[74.2549,38.6027],[74.0921,38.6118],[73.9076,38.5594],[73.7748,38.7017],[73.7944,38.9288],[73.7563,39.0257],[73.6437,39.2063],[73.5016,39.2904],[73.591,39.447],[73.9255,39.7264],[73.9096,39.9226],[74.1232,40.1098],[74.6257,40.2819],[74.8151,40.4187],[75.1764,40.4539],[75.6148,40.6405],[75.703,40.4819],[75.6966,40.3117],[76.4623,40.4187],[76.754,40.9531],[77.8027,41.1228],[78.1531,41.327],[79.9773,42.046],[80.2847,42.3186],[80.176,42.6555],[80.3222,42.8395],[80.529,42.938],[80.5868,43.1366],[80.783,43.22],[80.6983,43.5477],[80.5378,43.7941],[80.3968,44.1096],[80.3035,44.7055],[80.1545,44.837],[79.9331,44.8877],[80.4153,45.0603],[81.5716,45.3151],[82.4561,45.1874],[82.5854,45.2958],[82.2851,45.6981],[82.335,45.9379],[82.5036,46.129],[82.6364,46.3489],[83.0273,47.216],[83.8287,47.0107],[84.2785,47.0012],[85.0663,46.9257],[85.3996,47.0499],[85.6821,47.2228],[86.3405,47.0931]]],[[[86.8513,49.1081],[87.1254,49.1527],[87.4509,49.0833],[87.5038,49.1173],[87.8125,49.1535],[87.8349,49.0888],[87.8159,48.9494],[87.7425,48.8678],[88.0549,48.7121],[87.9589,48.5916],[88.5203,48.389],[88.5955,48.3128],[88.6224,48.2064],[89.0532,48.0039],[89.5422,48.0348],[89.7611,47.8363],[90.051,47.8802],[90.0716,47.779],[90.249,47.7006],[90.4507,47.503],[90.5579,47.2257],[90.7507,47.0194],[90.9327,46.8908],[91.0164,46.7495],[91.0522,46.5791],[90.9449,46.3455],[90.9833,46.1535],[90.1883,46.5357],[89.3176,46.8233],[87.8883,47.022],[87.4162,47.26],[86.9522,47.6389],[86.5133,48.0888],[86.3805,48.3055],[86.3212,48.4883],[86.4829,48.5052],[86.7764,48.7353],[86.8159,48.8305],[86.7276,48.9619],[86.8513,49.1081]]]]}}]}