{"type":"FeatureCollection","metadata":{"source_name":"DWD / GPCC Precipitation Analysis Climatology V2025","source_url":"https://opendata.dwd.de/climate_environment/GPCC/html/gpcc_precipitation_analysis_climatology_v2025_doi_download.html","download_url":"https://opendata.dwd.de/climate_environment/GPCC/GPCC_Precipitation_Analysis_Climatology/Version_2025/gpcc_precipitation_analysis_climatology_1991_2020_v2025_025.nc.gz","doi":"10.5676/DWD_GPCC/CLIMAT_V2025_025","source_sha256":"3bd80d05df52572f6409b594ae26b43e9045147cb3c25254cddb5a934c16e5c5","source_md5":"d701c717e08ce6ad457c9f4004984d65","period":"1991-2020","resolution_degrees":0.25,"units":"mm/year","isohyet_mm":400,"license":"CC BY 4.0","license_url":"https://www.dwd.de/EN/service/legal_notice/legal_notice.html","attribution":"Source: Deutscher Wetterdienst (DWD), GPCC; Rustemeier, Finger, Schirmeister & Ziese (2025). Modified by GeoBot: monthly sum, regional subset and 400 mm contour extraction.","method":"Sum 12 monthly normals, exclude cells with any missing/negative/nonfinite month, linear contour interpolation on grid centres; retain every branch and closed loop. No smoothing, no manual alignment to Hu line.","bounds":[73.0,18.0,136.0,55.0],"limitations":["雨量站资料插值的气候平均值，非2020年实测降水边界","0.25度网格只支持区域对照，不支持街区判断","范围为中国及周边矩形窗口，不作为国界","局部闭合曲线与多分支保留，不强行拼成一条人口分界线","未加雨量计系统误差校正；插值与资料覆盖存在不确定性"]},"features":[{"type":"Feature","properties":{"name":"400毫米年降水量线","annual_precip_mm":400,"period":"1991-2020","resolution":"0.25°","source":"DWD / GPCC V2025","__strokeColor":"#8b3db0","__strokeWidth":3,"__lineDash":[9,5],"__hideLabel":true},"geometry":{"type":"LineString","coordinates":[[73.125,30.930483],[73.222714,30.875],[73.375,30.825243],[73.625,30.71156],[73.817276,30.625],[73.875,30.595931],[74.125,30.476777],[74.375,30.385801],[74.402704,30.375],[74.625,30.232069],[74.735429,30.125],[74.764291,29.875],[74.681634,29.625],[74.625,29.499527],[74.566665,29.375],[74.48062,29.125],[74.455933,28.875],[74.489111,28.625],[74.578819,28.375],[74.625,28.222042],[74.647177,28.125],[74.625,27.995877],[74.597886,27.875],[74.460071,27.625],[74.375,27.482022],[74.294827,27.375],[74.159422,27.125],[74.125,27.032882],[74.035426,26.875],[73.937037,26.625],[73.875,26.454412],[73.760074,26.375],[73.625,26.316379],[73.375,26.256686],[73.137579,26.125],[73.125,26.118496]]}},{"type":"Feature","properties":{"name":"400毫米年降水量线","annual_precip_mm":400,"period":"1991-2020","resolution":"0.25°","source":"DWD / GPCC V2025","__strokeColor":"#8b3db0","__strokeWidth":3,"__lineDash":[9,5],"__hideLabel":true},"geometry":{"type":"LineString","coordinates":[[101.616897,36.625],[101.625,36.620385],[101.875,36.555387],[102.125,36.620914],[102.133291,36.625],[102.375,36.795108],[102.625,36.824133],[102.875,36.874922],[102.875081,36.875],[103.03429,37.125],[102.875,37.243375],[102.625,37.18094],[102.465293,37.125],[102.375,36.988714],[102.125,36.958117],[101.875,36.961595],[101.625,36.920741],[101.538849,36.875],[101.616897,36.625]]}},{"type":"Feature","properties":{"name":"400毫米年降水量线","annual_precip_mm":400,"period":"1991-2020","resolution":"0.25°","source":"DWD / GPCC V2025","__strokeColor":"#8b3db0","__strokeWidth":3,"__lineDash":[9,5],"__hideLabel":true},"geometry":{"type":"LineString","coordinates":[[99.528416,37.125],[99.625,37.037657],[99.875,36.968645],[100.125,37.000917],[100.375,37.069742],[100.558955,37.125],[100.625,37.202471],[100.680573,37.375],[100.625,37.423478],[100.379395,37.625],[100.375,37.626584],[100.125,37.663317],[99.875,37.674301],[99.625,37.673982],[99.375,37.638337],[99.352755,37.625],[99.340523,37.375],[99.375,37.307161],[99.528416,37.125]]}},{"type":"Feature","properties":{"name":"400毫米年降水量线","annual_precip_mm":400,"period":"1991-2020","resolution":"0.25°","source":"DWD / GPCC V2025","__strokeColor":"#8b3db0","__strokeWidth":3,"__lineDash":[9,5],"__hideLabel":true},"geometry":{"type":"LineString","coordinates":[[73.125,40.515351],[73.365209,40.375],[73.375,40.35405],[73.46875,40.375],[73.625,40.388499],[73.875,40.553316],[73.9375,40.625],[74.02668,40.875],[73.875,41.046173],[73.719313,41.125],[73.625,41.154197],[73.375,41.230014],[73.125,41.266284]]}},{"type":"Feature","properties":{"name":"400毫米年降水量线","annual_precip_mm":400,"period":"1991-2020","resolution":"0.25°","source":"DWD / GPCC V2025","__strokeColor":"#8b3db0","__strokeWidth":3,"__lineDash":[9,5],"__hideLabel":true},"geometry":{"type":"LineString","coordinates":[[77.602321,42.375],[77.625,42.3651],[77.875,42.339353],[78.078571,42.375],[78.125,42.385015],[78.375,42.510295],[78.563419,42.625],[78.625,42.668894],[78.791209,42.875],[78.758585,43.125],[78.674943,43.375],[78.625,43.480972],[78.574353,43.625],[78.454652,43.875],[78.375,43.981949],[78.246834,44.125],[78.125,44.220292],[77.875,44.306213],[77.625,44.307637],[77.375,44.265917],[77.125,44.211781],[76.875,44.144309],[76.814019,44.125],[76.625,44.067515],[76.375,43.976811],[76.138038,43.875],[76.125,43.865268],[75.875,43.654298],[75.84342,43.625],[75.771367,43.375],[75.875,43.193449],[75.914204,43.125],[76.125,43.049401],[76.375,42.920846],[76.446311,42.875],[76.625,42.777944],[76.875,42.648941],[76.946571,42.625],[77.125,42.521139],[77.375,42.430667],[77.602321,42.375]]}},{"type":"Feature","properties":{"name":"400毫米年降水量线","annual_precip_mm":400,"period":"1991-2020","resolution":"0.25°","source":"DWD / GPCC V2025","__strokeColor":"#8b3db0","__strokeWidth":3,"__lineDash":[9,5],"__hideLabel":true},"geometry":{"type":"LineString","coordinates":[[74.167345,42.625],[74.375,42.519563],[74.625,42.445314],[74.875,42.476035],[75.125,42.593516],[75.16825,42.625],[75.375,42.829643],[75.41088,42.875],[75.375,42.977072],[75.14489,43.125],[75.125,43.129644],[74.875,43.222303],[74.625,43.296644],[74.375,43.270255],[74.125,43.147175],[74.091056,43.125],[73.960546,42.875],[74.125,42.67897],[74.167345,42.625]]}},{"type":"Feature","properties":{"name":"400毫米年降水量线","annual_precip_mm":400,"period":"1991-2020","resolution":"0.25°","source":"DWD / GPCC V2025","__strokeColor":"#8b3db0","__strokeWidth":3,"__lineDash":[9,5],"__hideLabel":true},"geometry":{"type":"LineString","coordinates":[[80.949675,46.875],[81.125,46.814828],[81.375,46.742135],[81.625,46.718186],[81.875,46.782132],[82.009415,46.875],[82.125,47.017957],[82.19862,47.125],[82.267712,47.375],[82.134173,47.625],[82.125,47.630509],[81.875,47.743109],[81.625,47.813816],[81.375,47.862832],[81.262908,47.875],[81.125,47.886225],[81.01971,47.875],[80.875,47.853365],[80.625,47.696722],[80.556928,47.625],[80.417708,47.375],[80.474911,47.125],[80.625,47.014387],[80.875,46.907604],[80.949675,46.875]]}},{"type":"Feature","properties":{"name":"400毫米年降水量线","annual_precip_mm":400,"period":"1991-2020","resolution":"0.25°","source":"DWD / GPCC V2025","__strokeColor":"#8b3db0","__strokeWidth":3,"__lineDash":[9,5],"__hideLabel":true},"geometry":{"type":"LineString","coordinates":[[109.807445,52.625],[109.875,52.611779],[110.125,52.604924],[110.2098,52.625],[110.375,52.766502],[110.458667,52.875],[110.375,53.022214],[110.184974,53.125],[110.125,53.143829],[109.875,53.129839],[109.859074,53.125],[109.625,53.034754],[109.432939,52.875],[109.625,52.737977],[109.807445,52.625]]}},{"type":"Feature","properties":{"name":"400毫米年降水量线","annual_precip_mm":400,"period":"1991-2020","resolution":"0.25°","source":"DWD / GPCC V2025","__strokeColor":"#8b3db0","__strokeWidth":3,"__lineDash":[9,5],"__hideLabel":true},"geometry":{"type":"LineString","coordinates":[[73.276899,54.875],[73.375,54.842588],[73.625,54.865396],[73.643072,54.875]]}},{"type":"Feature","properties":{"name":"400毫米年降水量线","annual_precip_mm":400,"period":"1991-2020","resolution":"0.25°","source":"DWD / GPCC V2025","__strokeColor":"#8b3db0","__strokeWidth":3,"__lineDash":[9,5],"__hideLabel":true},"geometry":{"type":"LineString","coordinates":[[80.083824,54.875],[80.125,54.836644],[80.375,54.647586],[80.417773,54.625],[80.625,54.521233],[80.875,54.447361],[81.005368,54.375],[81.125,54.347892],[81.375,54.248264],[81.60205,54.125],[81.625,54.114555],[81.875,53.997272],[82.125,53.881625],[82.137909,53.875],[82.354642,53.625],[82.375,53.556694],[82.435675,53.375],[82.426892,53.125],[82.375,53.091656],[82.125,52.967205],[81.99335,52.875],[81.875,52.780382],[81.773238,52.625],[81.720039,52.375],[81.659314,52.125],[81.625,52.032237],[81.58016,51.875],[81.471127,51.625],[81.375,51.51338],[81.223661,51.375],[81.125,51.276826],[80.94388,51.125],[80.935862,50.875],[81.05464,50.625],[81.125,50.539634],[81.256493,50.375],[81.375,50.27251],[81.557746,50.125],[81.625,50.075989],[81.875,49.913514],[81.942011,49.875],[82.125,49.763083],[82.375,49.644621],[82.420743,49.625],[82.625,49.519383],[82.875,49.422059],[83.03106,49.375],[83.125,49.333966],[83.375,49.252802],[83.625,49.19199],[83.875,49.147687],[84.10533,49.125],[84.125,49.119847],[84.375,49.116928],[84.625,49.108544],[84.875,49.062563],[85.125,49.03436],[85.375,49.023164],[85.625,49.018716],[85.875,49.015222],[86.125,49.011543],[86.375,49.009653],[86.625,49.015207],[86.875,49.03993],[87.125,49.106947],[87.158646,49.125],[87.372061,49.375],[87.375,49.401278],[87.396186,49.625],[87.391719,49.875],[87.400939,50.125],[87.478149,50.375],[87.625,50.504152],[87.78297,50.625],[87.875,50.660344],[88.125,50.74478],[88.375,50.827015],[88.502834,50.875],[88.625,50.912184],[88.875,51.001049],[89.125,51.121082],[89.131871,51.125],[89.375,51.256006],[89.561976,51.375],[89.625,51.42325],[89.875,51.577084],[89.985585,51.625],[90.125,51.709365],[90.375,51.783894],[90.625,51.804208],[90.875,51.786722],[91.125,51.736641],[91.375,51.649327],[91.420761,51.625],[91.625,51.538068],[91.875,51.461395],[92.125,51.416258],[92.375,51.395763],[92.625,51.398609],[92.875,51.423389],[93.125,51.47409],[93.375,51.567269],[93.470811,51.625],[93.625,51.682435],[93.875,51.82553],[93.936947,51.875],[94.125,51.959888],[94.375,52.078341],[94.478045,52.125],[94.625,52.187579],[94.875,52.30842],[94.992256,52.375],[95.125,52.470477],[95.322799,52.625],[95.375,52.684825],[95.564579,52.875],[95.625,52.971939],[95.875,53.123636],[96.125,53.10524],[96.375,53.0672],[96.625,53.026043],[96.875,52.98178],[97.125,52.960193],[97.375,52.962465],[97.625,52.971859],[97.875,53.000292],[98.125,53.065129],[98.267501,53.125],[98.375,53.164092],[98.625,53.282455],[98.7707,53.375],[98.875,53.44264],[99.125,53.577579],[99.271664,53.625],[99.375,53.667321],[99.625,53.688815],[99.875,53.64506],[99.925216,53.625],[100.125,53.540947],[100.334312,53.375],[100.375,53.328986],[100.517679,53.125],[100.625,52.971066],[100.685953,52.875],[100.875,52.660564],[100.906509,52.625],[101.125,52.448036],[101.233859,52.375],[101.375,52.279698],[101.596778,52.125],[101.625,52.09244],[101.816249,51.875],[101.813425,51.625],[101.720666,51.375],[101.692578,51.125],[101.754893,50.875],[101.875,50.719114],[101.956161,50.625],[102.125,50.500138],[102.375,50.385096],[102.408218,50.375],[102.625,50.275684],[102.875,50.208671],[103.125,50.164332],[103.375,50.127789],[103.397629,50.125],[103.625,50.080504],[103.875,50.02698],[104.125,49.985021],[104.375,49.983708],[104.625,50.052075],[104.739615,50.125],[104.875,50.212094],[105.014492,50.375],[105.125,50.480127],[105.219064,50.625],[105.368063,50.875],[105.375,50.887804],[105.561268,51.125],[105.625,51.183613],[105.875,51.31109],[105.972605,51.375],[106.125,51.46816],[106.287497,51.625],[106.278553,51.875],[106.125,52.010243],[105.875,52.015955],[105.625,51.877593],[105.620706,51.875],[105.375,51.751735],[105.125,51.805994],[105.043743,51.875],[104.887261,52.125],[104.875,52.186622],[104.772583,52.375],[104.625,52.48358],[104.375,52.538053],[104.125,52.621188],[104.117496,52.625],[103.875,52.874193],[103.874014,52.875],[103.626733,53.125],[103.625,53.126109],[103.375,53.274112],[103.157709,53.375],[103.125,53.38803],[102.875,53.493124],[102.625,53.607594],[102.58639,53.625],[102.375,53.791836],[102.262919,53.875],[102.125,54.119539],[102.119816,54.125],[101.985874,54.375],[101.976545,54.625],[102.02074,54.875]]}},{"type":"Feature","properties":{"name":"400毫米年降水量线","annual_precip_mm":400,"period":"1991-2020","resolution":"0.25°","source":"DWD / GPCC V2025","__strokeColor":"#8b3db0","__strokeWidth":3,"__lineDash":[9,5],"__hideLabel":true},"geometry":{"type":"LineString","coordinates":[[91.898,54.875],[92.074337,54.625],[92.125,54.559862],[92.329995,54.375],[92.26411,54.125],[92.125,54.019194],[92.012602,53.875],[91.875,53.771832],[91.730492,53.625],[91.625,53.560876],[91.375,53.415173],[91.277914,53.375],[91.125,53.319806],[90.875,53.277833],[90.625,53.297859],[90.427853,53.375],[90.375,53.391094],[90.125,53.571118],[90.087371,53.625],[90.125,53.872453],[90.125588,53.875],[90.375,54.061711],[90.480173,54.125],[90.625,54.255881],[90.784341,54.375],[90.818464,54.625],[90.625,54.860069],[90.614165,54.875]]}},{"type":"Feature","properties":{"name":"400毫米年降水量线","annual_precip_mm":400,"period":"1991-2020","resolution":"0.25°","source":"DWD / GPCC V2025","__strokeColor":"#8b3db0","__strokeWidth":3,"__lineDash":[9,5],"__hideLabel":true},"geometry":{"type":"LineString","coordinates":[[107.587366,54.875],[107.625,54.873541],[107.662234,54.875]]}},{"type":"Feature","properties":{"name":"400毫米年降水量线","annual_precip_mm":400,"period":"1991-2020","resolution":"0.25°","source":"DWD / GPCC V2025","__strokeColor":"#8b3db0","__strokeWidth":3,"__lineDash":[9,5],"__hideLabel":true},"geometry":{"type":"LineString","coordinates":[[109.109246,54.875],[109.027663,54.625],[109.125,54.447956],[109.15115,54.375],[109.375,54.206409],[109.590797,54.125],[109.625,54.113188],[109.875,54.11491],[109.975371,54.125],[110.125,54.14774],[110.375,54.163802],[110.625,54.164865],[110.875,54.173084],[111.125,54.174964],[111.375,54.187853],[111.625,54.217299],[111.875,54.238402],[112.125,54.24661],[112.375,54.243964],[112.625,54.233696],[112.875,54.230046],[113.125,54.254328],[113.375,54.352481],[113.413016,54.375],[113.625,54.614795],[113.638726,54.625],[113.625,54.70109],[113.602337,54.875]]}},{"type":"Feature","properties":{"name":"400毫米年降水量线","annual_precip_mm":400,"period":"1991-2020","resolution":"0.25°","source":"DWD / GPCC V2025","__strokeColor":"#8b3db0","__strokeWidth":3,"__lineDash":[9,5],"__hideLabel":true},"geometry":{"type":"LineString","coordinates":[[114.519314,54.875],[114.463415,54.625],[114.584507,54.375],[114.625,54.340257],[114.875,54.13843],[114.895249,54.125],[115.125,54.025874],[115.375,53.941834],[115.598783,53.875],[115.625,53.866347],[115.875,53.779314],[116.125,53.696682],[116.34404,53.625],[116.375,53.615138],[116.625,53.543037],[116.875,53.483752],[117.125,53.427825],[117.321049,53.375],[117.375,53.359525],[117.625,53.254513],[117.865265,53.125],[117.875,53.117028],[118.125,52.914843],[118.178869,52.875],[118.375,52.673989],[118.423462,52.625],[118.590088,52.375],[118.625,52.279185],[118.675872,52.125],[118.701626,51.875],[118.734375,51.625],[118.875,51.388158],[118.881605,51.375],[119.125,51.21366],[119.285714,51.125],[119.375,51.100415],[119.625,51.057809],[119.875,51.04382],[120.125,51.037262],[120.375,50.985159],[120.542983,50.875],[120.625,50.81114],[120.760316,50.625],[120.875,50.40027],[120.886275,50.375],[120.987084,50.125],[121.034142,49.875],[120.975262,49.625],[120.875,49.445911],[120.836969,49.375],[120.673765,49.125],[120.625,49.044181],[120.52397,48.875],[120.412552,48.625],[120.375,48.549699],[120.296383,48.375],[120.125,48.126962],[120.123428,48.125],[119.875,47.887317],[119.860792,47.875],[119.625,47.680893],[119.563915,47.625],[119.375,47.431323],[119.325195,47.375],[119.143974,47.125],[119.125,47.094328],[118.955595,46.875],[118.875,46.758757],[118.798176,46.625],[118.788271,46.375],[118.875,46.21062],[118.914378,46.125],[119.11969,45.875],[119.125,45.868839],[119.375,45.659054],[119.47173,45.625],[119.625,45.55006],[119.875,45.526147],[120.125,45.516004],[120.375,45.505152],[120.625,45.497451],[120.875,45.503384],[121.125,45.530558],[121.375,45.585331],[121.491136,45.625],[121.625,45.672977],[121.875,45.78892],[122.024235,45.875],[122.125,45.938874],[122.375,46.077288],[122.511194,46.125],[122.625,46.166724],[122.875,46.177169],[123.052481,46.125],[123.125,46.103842],[123.375,45.985877],[123.533625,45.875],[123.625,45.770517],[123.720822,45.625],[123.818828,45.375],[123.875,45.190079],[123.895562,45.125],[123.875,45.029206],[123.843177,44.875],[123.625,44.642472],[123.613975,44.625],[123.375,44.431562],[123.289484,44.375],[123.125,44.271582],[122.875,44.135759],[122.856093,44.125],[122.625,43.880011],[122.620669,43.875],[122.491102,43.625],[122.375,43.448226],[122.335781,43.375],[122.125,43.24216],[121.972937,43.125],[121.875,43.077883],[121.625,42.93956],[121.503028,42.875],[121.375,42.79797],[121.125,42.673219],[120.968882,42.625],[120.875,42.573216],[120.625,42.55135],[120.375,42.549248],[120.125,42.487957],[119.875,42.391852],[119.839628,42.375],[119.625,42.288856],[119.375,42.188483],[119.178273,42.125],[119.125,42.108654],[118.875,42.088644],[118.757434,42.125],[118.625,42.18139],[118.38112,42.375],[118.375,42.379279],[118.125,42.559497],[118.001572,42.625],[117.875,42.697492],[117.625,42.783509],[117.375,42.802718],[117.125,42.755771],[116.875,42.650355],[116.825884,42.625],[116.649882,42.375],[116.625,42.326538],[116.432918,42.125],[116.375,42.103729],[116.125,42.107071],[115.944767,42.125],[115.875,42.135648],[115.829717,42.125],[115.625,42.086497],[115.375,41.931779],[115.314047,41.875],[115.125,41.706325],[115.04911,41.625],[114.884113,41.375],[114.875,41.358969],[114.709457,41.125],[114.625,41.032114],[114.375,40.931611],[114.257931,40.875],[114.125,40.763889],[113.981957,40.625],[113.875,40.486064],[113.749523,40.375],[113.625,40.279185],[113.375,40.202316],[113.125,40.251946],[112.875,40.342355],[112.797,40.375],[112.625,40.427825],[112.375,40.509002],[112.125,40.620808],[112.119107,40.625],[111.875,40.764692],[111.686678,40.875],[111.625,40.887909],[111.547521,40.875],[111.375,40.789622],[111.272907,40.625],[111.194108,40.375],[111.125,40.242083],[111.068301,40.125],[110.89724,39.875],[110.875,39.844305],[110.682966,39.625],[110.625,39.570092],[110.488753,39.375],[110.375,39.285906],[110.204723,39.125],[110.125,39.071266],[109.875,38.944109],[109.70975,38.875],[109.625,38.836007],[109.375,38.640974],[109.362144,38.625],[109.317006,38.375],[109.375,38.307686],[109.496374,38.125],[109.623879,37.875],[109.475743,37.625],[109.375,37.586018],[109.125,37.546553],[108.875,37.529247],[108.625,37.481452],[108.375,37.401334],[108.311448,37.375],[108.125,37.310272],[107.875,37.190541],[107.750588,37.125],[107.625,37.039326],[107.375,36.926925],[107.23173,36.875],[107.125,36.822135],[106.875,36.661527],[106.833198,36.625],[106.625,36.483905],[106.38072,36.375],[106.375,36.37206],[106.125,36.249694],[105.947532,36.125],[105.875,35.982213],[105.810048,35.875],[105.625,35.676499],[105.516901,35.625],[105.375,35.596015],[105.125,35.604418],[104.875,35.592627],[104.625,35.501372],[104.375,35.553787],[104.296397,35.625],[104.125,35.713545],[103.875,35.801767],[103.692721,35.875],[103.625,35.895766],[103.375,35.984778],[103.125,36.034765],[102.875,36.017149],[102.625,35.944186],[102.481166,35.875],[102.375,35.81574],[102.125,35.634278],[102.107965,35.625],[101.875,35.546053],[101.625,35.53182],[101.375,35.557502],[101.205113,35.625],[101.125,35.657458],[100.875,35.798333],[100.625,35.840573],[100.375,35.745709],[100.234526,35.625],[100.125,35.470702],[99.983805,35.375],[99.875,35.338688],[99.625,35.301218],[99.375,35.209937],[99.264253,35.125],[99.125,35.027495],[98.962861,34.875],[98.875,34.801045],[98.666913,34.625],[98.625,34.595186],[98.375,34.482789],[98.125,34.487869],[97.875,34.594183],[97.81896,34.625],[97.625,34.733081],[97.375,34.844975],[97.295802,34.875],[97.125,34.906618],[96.875,34.929386],[96.625,34.93656],[96.375,34.941179],[96.125,34.951338],[95.875,34.962299],[95.625,34.957947],[95.375,34.932296],[95.125,34.897459],[94.976249,34.875],[94.875,34.829839],[94.625,34.715357],[94.478418,34.625],[94.375,34.467348],[94.328765,34.375],[94.198699,34.125],[94.125,34.043872],[94.02672,33.875],[93.875,33.705863],[93.811035,33.625],[93.625,33.479434],[93.4686,33.375],[93.375,33.327453],[93.125,33.22991],[92.875,33.125902],[92.87228,33.125],[92.625,33.054872],[92.375,33.001321],[92.125,32.946716],[91.875,32.909071],[91.625,32.908149],[91.375,32.90826],[91.152113,32.875],[91.125,32.868812],[90.875,32.719766],[90.782444,32.625],[90.72493,32.375],[90.710673,32.125],[90.734354,31.875],[90.736721,31.625],[90.666404,31.375],[90.625,31.306862],[90.487757,31.125],[90.375,31.011576],[90.234264,30.875],[90.125,30.771015],[89.995999,30.625],[89.875,30.455341],[89.815227,30.375],[89.717838,30.125],[89.875,29.904247],[89.892073,29.875],[90.125,29.69186],[90.192344,29.625],[90.375,29.443656],[90.43696,29.375],[90.625,29.142195],[90.642801,29.125],[90.862625,28.875],[90.875,28.859032],[91.125,28.740244],[91.375,28.835381],[91.429506,28.875],[91.625,29.051965],[91.715723,29.125],[91.875,29.266932],[92.030742,29.375],[92.125,29.43103],[92.375,29.582195],[92.625,29.595978],[92.827508,29.375],[92.875,29.342027],[93.025576,29.125],[93.125,29.002009],[93.184233,28.875],[93.125,28.705973],[93.091131,28.625],[92.875,28.411479],[92.840982,28.375],[92.625,28.195699],[92.527473,28.125],[92.375,28.053831],[92.125,27.987763],[91.875,27.922912],[91.71604,27.875],[91.625,27.866917],[91.375,27.858515],[91.125,27.85882],[90.875,27.8578],[90.625,27.850588],[90.375,27.840702],[90.125,27.875],[90.125,27.875],[89.875,27.949344],[89.625,28.044648],[89.455877,28.125],[89.375,28.159536],[89.125,28.33168],[89.098356,28.375],[88.921698,28.625],[88.930297,28.875],[89.09215,29.125],[89.125,29.187367],[89.211515,29.375],[89.262429,29.625],[89.235783,29.875],[89.125,29.953245],[88.875,30.014948],[88.625,29.990083],[88.375,29.877864],[88.371326,29.875],[88.236577,29.625],[88.230142,29.375],[88.205365,29.125],[88.125,29.060602],[87.895267,28.875],[87.875,28.872595],[87.625,28.829974],[87.375,28.725621],[87.235617,28.625],[87.125,28.604501],[86.875,28.58558],[86.625,28.608119],[86.559671,28.625],[86.437233,28.875],[86.375,29.001081],[86.343626,29.125],[86.292337,29.375],[86.242136,29.625],[86.144321,29.875],[86.125,29.901077],[86.078393,30.125],[85.985799,30.375],[85.875,30.448684],[85.625,30.530266],[85.375,30.53202],[85.125,30.50667],[84.875,30.437097],[84.731422,30.375],[84.625,30.30908],[84.401726,30.125],[84.375,29.979136],[84.351518,29.875],[84.288471,29.625],[84.22724,29.375],[84.172114,29.125],[84.125,29.016993],[84.020818,28.875],[83.875,28.857181],[83.806156,28.875],[83.625,29.076262],[83.548666,29.125],[83.375,29.328833],[83.248437,29.375],[83.336632,29.625],[83.375,29.685749],[83.50062,29.875],[83.625,30.102261],[83.641558,30.125],[83.779158,30.375],[83.709228,30.625],[83.625,30.713734],[83.40392,30.875],[83.375,30.897777],[83.125,31.013877],[82.875,31.027905],[82.625,30.936784],[82.540312,30.875],[82.375,30.720892],[82.292857,30.625],[82.125,30.468203],[82.037365,30.375],[81.875,30.253433],[81.625,30.12609],[81.375,30.133155],[81.125,30.305191],[81.067938,30.375],[80.977285,30.625],[80.898131,30.875],[80.875,30.940465],[80.786215,31.125],[80.625,31.230744],[80.375,31.307521],[80.125,31.335286],[79.875,31.343904],[79.625,31.372251],[79.617823,31.375],[79.375,31.583763],[79.324021,31.625],[79.125,31.855203],[79.101979,31.875],[78.875,32.099765],[78.843476,32.125],[78.625,32.328633],[78.562752,32.375],[78.375,32.515283],[78.125,32.59636],[77.917615,32.625],[77.875,32.631775],[77.625,32.675293],[77.375,32.862255],[77.364198,32.875],[77.375,32.952851],[77.406303,33.125],[77.500114,33.375],[77.597976,33.625],[77.625,33.695389],[77.709211,33.875],[77.815225,34.125],[77.875,34.276224],[77.911631,34.375],[77.918451,34.625],[77.875,34.728033],[77.804818,34.875],[77.625,35.06827],[77.561553,35.125],[77.375,35.277397],[77.243749,35.375],[77.125,35.45911],[76.875,35.623919],[76.873504,35.625],[76.625,35.778854],[76.487323,35.875],[76.375,35.943811],[76.125,36.098209],[76.089609,36.125],[75.875,36.251309],[75.638911,36.375],[75.625,36.382131],[75.375,36.508701],[75.171088,36.625],[75.125,36.65191],[74.875,36.789641],[74.625,36.865429],[74.525036,36.875],[74.375,36.922348],[74.125,36.916474],[73.875,36.897475],[73.640262,36.875],[73.625,36.873474],[73.375,36.850682],[73.125,36.829931]]}}]}
