{"type":"FeatureCollection","features":[{"type":"Feature","properties":{"name":"梵蒂冈","name_en":"Vatican City","region_code":"VAT","population":832,"source_year":"","source_name":"Natural Earth populated places","source_url":"https://raw.githubusercontent.com/nvkelso/natural-earth-vector/master/geojson/ne_110m_populated_places.geojson","license":"public domain"},"geometry":{"type":"Point","coordinates":[12.453387,41.903282]}},{"type":"Feature","properties":{"name":"圣马力诺","name_en":"San Marino","region_code":"SMR","population":29579,"source_year":"","source_name":"Natural Earth populated places","source_url":"https://raw.githubusercontent.com/nvkelso/natural-earth-vector/master/geojson/ne_110m_populated_places.geojson","license":"public domain"},"geometry":{"type":"Point","coordinates":[12.44177,43.936096]}},{"type":"Feature","properties":{"name":"瓦都兹","name_en":"Vaduz","region_code":"LIE","population":36281,"source_year":"","source_name":"Natural Earth populated places","source_url":"https://raw.githubusercontent.com/nvkelso/natural-earth-vector/master/geojson/ne_110m_populated_places.geojson","license":"public domain"},"geometry":{"type":"Point","coordinates":[9.51667,47.133724]}},{"type":"Feature","properties":{"name":"洛班巴","name_en":"Lobamba","region_code":"SWZ","population":9782,"source_year":"","source_name":"Natural Earth populated places","source_url":"https://raw.githubusercontent.com/nvkelso/natural-earth-vector/master/geojson/ne_110m_populated_places.geojson","license":"public domain"},"geometry":{"type":"Point","coordinates":[31.199997,-26.466667]}},{"type":"Feature","properties":{"name":"卢森堡","name_en":"Luxembourg","region_code":"LUX","population":107260,"source_year":"","source_name":"Natural Earth populated places","source_url":"https://raw.githubusercontent.com/nvkelso/natural-earth-vector/master/geojson/ne_110m_populated_places.geojson","license":"public domain"},"geometry":{"type":"Point","coordinates":[6.130003,49.61166]}},{"type":"Feature","properties":{"name":"帕利基尔","name_en":"Palikir","region_code":"FSM","population":4645,"source_year":"","source_name":"Natural Earth populated places","source_url":"https://raw.githubusercontent.com/nvkelso/natural-earth-vector/master/geojson/ne_110m_populated_places.geojson","license":"public domain"},"geometry":{"type":"Point","coordinates":[158.149974,6.916644]}},{"type":"Feature","properties":{"name":"马朱罗","name_en":"Majuro","region_code":"MHL","population":25400,"source_year":"","source_name":"Natural Earth populated places","source_url":"https://raw.githubusercontent.com/nvkelso/natural-earth-vector/master/geojson/ne_110m_populated_places.geojson","license":"public domain"},"geometry":{"type":"Point","coordinates":[171.38,7.103004]}},{"type":"Feature","properties":{"name":"富纳富提","name_en":"Funafuti","region_code":"TUV","population":4749,"source_year":"","source_name":"Natural Earth populated places","source_url":"https://raw.githubusercontent.com/nvkelso/natural-earth-vector/master/geojson/ne_110m_populated_places.geojson","license":"public domain"},"geometry":{"type":"Point","coordinates":[179.216647,-8.516652]}},{"type":"Feature","properties":{"name":"梅莱凯奥克","name_en":"Melekeok","region_code":"PLW","population":7026,"source_year":"","source_name":"Natural Earth populated places","source_url":"https://raw.githubusercontent.com/nvkelso/natural-earth-vector/master/geojson/ne_110m_populated_places.geojson","license":"public domain"},"geometry":{"type":"Point","coordinates":[134.626549,7.487396]}},{"type":"Feature","properties":{"name":"比鄂-雷楼","name_en":"Bir Lehlou","region_code":"SAH","population":500,"source_year":"","source_name":"Natural Earth populated places","source_url":"https://raw.githubusercontent.com/nvkelso/natural-earth-vector/master/geojson/ne_110m_populated_places.geojson","license":"public domain"},"geometry":{"type":"Point","coordinates":[-9.652522,26.119167]}},{"type":"Feature","properties":{"name":"摩纳哥","name_en":"Monaco","region_code":"MCO","population":36371,"source_year":"","source_name":"Natural Earth populated places","source_url":"https://raw.githubusercontent.com/nvkelso/natural-earth-vector/master/geojson/ne_110m_populated_places.geojson","license":"public domain"},"geometry":{"type":"Point","coordinates":[7.406913,43.739646]}},{"type":"Feature","properties":{"name":"南塔拉瓦","name_en":"Tarawa","region_code":"KIR","population":28802,"source_year":"","source_name":"Natural Earth populated places","source_url":"https://raw.githubusercontent.com/nvkelso/natural-earth-vector/master/geojson/ne_110m_populated_places.geojson","license":"public domain"},"geometry":{"type":"Point","coordinates":[173.017571,1.338188]}},{"type":"Feature","properties":{"name":"莫洛尼","name_en":"Moroni","region_code":"COM","population":128698,"source_year":"","source_name":"Natural Earth populated places","source_url":"https://raw.githubusercontent.com/nvkelso/natural-earth-vector/master/geojson/ne_110m_populated_places.geojson","license":"public domain"},"geometry":{"type":"Point","coordinates":[43.240244,-11.704158]}},{"type":"Feature","properties":{"name":"安道尔城","name_en":"Andorra","region_code":"AND","population":53998,"source_year":"","source_name":"Natural Earth populated places","source_url":"https://raw.githubusercontent.com/nvkelso/natural-earth-vector/master/geojson/ne_110m_populated_places.geojson","license":"public domain"},"geometry":{"type":"Point","coordinates":[1.526594,42.510753]}},{"type":"Feature","properties":{"name":"西班牙港","name_en":"Port-of-Spain","region_code":"TTO","population":294934,"source_year":"","source_name":"Natural Earth populated places","source_url":"https://raw.githubusercontent.com/nvkelso/natural-earth-vector/master/geojson/ne_110m_populated_places.geojson","license":"public domain"},"geometry":{"type":"Point","coordinates":[-61.517031,10.651997]}},{"type":"Feature","properties":{"name":"吉佳利","name_en":"Kigali","region_code":"RWA","population":860000,"source_year":"","source_name":"Natural Earth populated places","source_url":"https://raw.githubusercontent.com/nvkelso/natural-earth-vector/master/geojson/ne_110m_populated_places.geojson","license":"public domain"},"geometry":{"type":"Point","coordinates":[30.058586,-1.951644]}},{"type":"Feature","properties":{"name":"墨巴本","name_en":"Mbabane","region_code":"SWZ","population":90138,"source_year":"","source_name":"Natural Earth populated places","source_url":"https://raw.githubusercontent.com/nvkelso/natural-earth-vector/master/geojson/ne_110m_populated_places.geojson","license":"public domain"},"geometry":{"type":"Point","coordinates":[31.133335,-26.316651]}},{"type":"Feature","properties":{"name":"朱巴","name_en":"Juba","region_code":"SSD","population":111975,"source_year":"","source_name":"Natural Earth populated places","source_url":"https://raw.githubusercontent.com/nvkelso/natural-earth-vector/master/geojson/ne_110m_populated_places.geojson","license":"public domain"},"geometry":{"type":"Point","coordinates":[31.580026,4.829975]}},{"type":"Feature","properties":{"name":"海牙","name_en":"The Hague","region_code":"NLD","population":1406000,"source_year":"","source_name":"Natural Earth populated places","source_url":"https://raw.githubusercontent.com/nvkelso/natural-earth-vector/master/geojson/ne_110m_populated_places.geojson","license":"public domain"},"geometry":{"type":"Point","coordinates":[4.269961,52.080037]}},{"type":"Feature","properties":{"name":"卢布尔雅那","name_en":"Ljubljana","region_code":"SVN","population":314807,"source_year":"","source_name":"Natural Earth populated places","source_url":"https://raw.githubusercontent.com/nvkelso/natural-earth-vector/master/geojson/ne_110m_populated_places.geojson","license":"public domain"},"geometry":{"type":"Point","coordinates":[14.514969,46.055288]}},{"type":"Feature","properties":{"name":"布拉迪斯拉发","name_en":"Bratislava","region_code":"SVK","population":423737,"source_year":"","source_name":"Natural Earth populated places","source_url":"https://raw.githubusercontent.com/nvkelso/natural-earth-vector/master/geojson/ne_110m_populated_places.geojson","license":"public domain"},"geometry":{"type":"Point","coordinates":[17.116981,48.150018]}},{"type":"Feature","properties":{"name":"多哈","name_en":"Doha","region_code":"QAT","population":1450000,"source_year":"","source_name":"Natural Earth populated places","source_url":"https://raw.githubusercontent.com/nvkelso/natural-earth-vector/master/geojson/ne_110m_populated_places.geojson","license":"public domain"},"geometry":{"type":"Point","coordinates":[51.532968,25.286556]}},{"type":"Feature","properties":{"name":"波德戈里察","name_en":"Podgorica","region_code":"MNE","population":145850,"source_year":"","source_name":"Natural Earth populated places","source_url":"https://raw.githubusercontent.com/nvkelso/natural-earth-vector/master/geojson/ne_110m_populated_places.geojson","license":"public domain"},"geometry":{"type":"Point","coordinates":[19.266307,42.465972]}},{"type":"Feature","properties":{"name":"斯里贾亚瓦德纳普拉科特","name_en":"Sri Jayawardenepura Kotte","region_code":"LKA","population":115826,"source_year":"","source_name":"Natural Earth populated places","source_url":"https://raw.githubusercontent.com/nvkelso/natural-earth-vector/master/geojson/ne_110m_populated_places.geojson","license":"public domain"},"geometry":{"type":"Point","coordinates":[79.949993,6.900004]}},{"type":"Feature","properties":{"name":"碧瑶","name_en":"Baguio","region_code":"PHL","population":447824,"source_year":"","source_name":"Natural Earth populated places","source_url":"https://raw.githubusercontent.com/nvkelso/natural-earth-vector/master/geojson/ne_110m_populated_places.geojson","license":"public domain"},"geometry":{"type":"Point","coordinates":[120.569943,16.429991]}},{"type":"Feature","properties":{"name":"多多马","name_en":"Dodoma","region_code":"TZA","population":218269,"source_year":"","source_name":"Natural Earth populated places","source_url":"https://raw.githubusercontent.com/nvkelso/natural-earth-vector/master/geojson/ne_110m_populated_places.geojson","license":"public domain"},"geometry":{"type":"Point","coordinates":[35.750004,-6.183306]}},{"type":"Feature","properties":{"name":"伯尔尼","name_en":"Bern","region_code":"CHE","population":275329,"source_year":"","source_name":"Natural Earth populated places","source_url":"https://raw.githubusercontent.com/nvkelso/natural-earth-vector/master/geojson/ne_110m_populated_places.geojson","license":"public domain"},"geometry":{"type":"Point","coordinates":[7.466976,46.916683]}},{"type":"Feature","properties":{"name":"阿尤恩","name_en":"Laayoune","region_code":"MAR","population":188084,"source_year":"","source_name":"Natural Earth populated places","source_url":"https://raw.githubusercontent.com/nvkelso/natural-earth-vector/master/geojson/ne_110m_populated_places.geojson","license":"public domain"},"geometry":{"type":"Point","coordinates":[-13.200006,27.149982]}},{"type":"Feature","properties":{"name":"普里什蒂纳","name_en":"Pristina","region_code":"KOS","population":465186,"source_year":"","source_name":"Natural Earth populated places","source_url":"https://raw.githubusercontent.com/nvkelso/natural-earth-vector/master/geojson/ne_110m_populated_places.geojson","license":"public domain"},"geometry":{"type":"Point","coordinates":[21.165984,42.66671]}},{"type":"Feature","properties":{"name":"罗索","name_en":"Roseau","region_code":"DMA","population":23336,"source_year":"","source_name":"Natural Earth populated places","source_url":"https://raw.githubusercontent.com/nvkelso/natural-earth-vector/master/geojson/ne_110m_populated_places.geojson","license":"public domain"},"geometry":{"type":"Point","coordinates":[-61.387013,15.301016]}},{"type":"Feature","properties":{"name":"吉布地","name_en":"Djibouti","region_code":"DJI","population":923000,"source_year":"","source_name":"Natural Earth populated places","source_url":"https://raw.githubusercontent.com/nvkelso/natural-earth-vector/master/geojson/ne_110m_populated_places.geojson","license":"public domain"},"geometry":{"type":"Point","coordinates":[43.148002,11.595014]}},{"type":"Feature","properties":{"name":"布城","name_en":"Putrajaya","region_code":"MYS","population":67964,"source_year":"","source_name":"Natural Earth populated places","source_url":"https://raw.githubusercontent.com/nvkelso/natural-earth-vector/master/geojson/ne_110m_populated_places.geojson","license":"public domain"},"geometry":{"type":"Point","coordinates":[101.695037,2.932515]}},{"type":"Feature","properties":{"name":"京都","name_en":"Kyoto","region_code":"JPN","population":1805000,"source_year":"","source_name":"Natural Earth populated places","source_url":"https://raw.githubusercontent.com/nvkelso/natural-earth-vector/master/geojson/ne_110m_populated_places.geojson","license":"public domain"},"geometry":{"type":"Point","coordinates":[135.748052,35.031938]}},{"type":"Feature","properties":{"name":"班竹","name_en":"Banjul","region_code":"GMB","population":43094,"source_year":"","source_name":"Natural Earth populated places","source_url":"https://raw.githubusercontent.com/nvkelso/natural-earth-vector/master/geojson/ne_110m_populated_places.geojson","license":"public domain"},"geometry":{"type":"Point","coordinates":[-16.591701,13.453876]}},{"type":"Feature","properties":{"name":"斯科普里","name_en":"Skopje","region_code":"MKD","population":494087,"source_year":"","source_name":"Natural Earth populated places","source_url":"https://raw.githubusercontent.com/nvkelso/natural-earth-vector/master/geojson/ne_110m_populated_places.geojson","license":"public domain"},"geometry":{"type":"Point","coordinates":[21.433461,42.000006]}},{"type":"Feature","properties":{"name":"布里奇顿","name_en":"Bridgetown","region_code":"BRB","population":191152,"source_year":"","source_name":"Natural Earth populated places","source_url":"https://raw.githubusercontent.com/nvkelso/natural-earth-vector/master/geojson/ne_110m_populated_places.geojson","license":"public domain"},"geometry":{"type":"Point","coordinates":[-59.616527,13.102003]}},{"type":"Feature","properties":{"name":"波多诺伏","name_en":"Porto-Novo","region_code":"BEN","population":300000,"source_year":"","source_name":"Natural Earth populated places","source_url":"https://raw.githubusercontent.com/nvkelso/natural-earth-vector/master/geojson/ne_110m_populated_places.geojson","license":"public domain"},"geometry":{"type":"Point","coordinates":[2.616626,6.483311]}},{"type":"Feature","properties":{"name":"布琼布拉","name_en":"Bujumbura","region_code":"BDI","population":331700,"source_year":"","source_name":"Natural Earth populated places","source_url":"https://raw.githubusercontent.com/nvkelso/natural-earth-vector/master/geojson/ne_110m_populated_places.geojson","license":"public domain"},"geometry":{"type":"Point","coordinates":[29.360006,-3.376087]}},{"type":"Feature","properties":{"name":"金斯敦","name_en":"Kingstown","region_code":"VCT","population":49485,"source_year":"","source_name":"Natural Earth populated places","source_url":"https://raw.githubusercontent.com/nvkelso/natural-earth-vector/master/geojson/ne_110m_populated_places.geojson","license":"public domain"},"geometry":{"type":"Point","coordinates":[-61.220236,13.155756]}},{"type":"Feature","properties":{"name":"卡斯特里","name_en":"Castries","region_code":"LCA","population":37963,"source_year":"","source_name":"Natural Earth populated places","source_url":"https://raw.githubusercontent.com/nvkelso/natural-earth-vector/master/geojson/ne_110m_populated_places.geojson","license":"public domain"},"geometry":{"type":"Point","coordinates":[-60.992875,14.007875]}},{"type":"Feature","properties":{"name":"巴斯特尔","name_en":"Basseterre","region_code":"KNA","population":21887,"source_year":"","source_name":"Natural Earth populated places","source_url":"https://raw.githubusercontent.com/nvkelso/natural-earth-vector/master/geojson/ne_110m_populated_places.geojson","license":"public domain"},"geometry":{"type":"Point","coordinates":[-62.717009,17.302031]}},{"type":"Feature","properties":{"name":"路易港","name_en":"Port Louis","region_code":"MUS","population":595491,"source_year":"","source_name":"Natural Earth populated places","source_url":"https://raw.githubusercontent.com/nvkelso/natural-earth-vector/master/geojson/ne_110m_populated_places.geojson","license":"public domain"},"geometry":{"type":"Point","coordinates":[57.499994,-20.166639]}},{"type":"Feature","properties":{"name":"圣乔治","name_en":"Saint George's","region_code":"GRD","population":33734,"source_year":"","source_name":"Natural Earth populated places","source_url":"https://raw.githubusercontent.com/nvkelso/natural-earth-vector/master/geojson/ne_110m_populated_places.geojson","license":"public domain"},"geometry":{"type":"Point","coordinates":[-61.741643,12.052633]}},{"type":"Feature","properties":{"name":"麦纳麦","name_en":"Manama","region_code":"BHR","population":563920,"source_year":"","source_name":"Natural Earth populated places","source_url":"https://raw.githubusercontent.com/nvkelso/natural-earth-vector/master/geojson/ne_110m_populated_places.geojson","license":"public domain"},"geometry":{"type":"Point","coordinates":[50.583052,26.236136]}},{"type":"Feature","properties":{"name":"圣约翰","name_en":"Saint John's","region_code":"ATG","population":35499,"source_year":"","source_name":"Natural Earth populated places","source_url":"https://raw.githubusercontent.com/nvkelso/natural-earth-vector/master/geojson/ne_110m_populated_places.geojson","license":"public domain"},"geometry":{"type":"Point","coordinates":[-61.850034,17.118036]}},{"type":"Feature","properties":{"name":"蒙得维的亚","name_en":"Montevideo","region_code":"URY","population":1513000,"source_year":"","source_name":"Natural Earth populated places","source_url":"https://raw.githubusercontent.com/nvkelso/natural-earth-vector/master/geojson/ne_110m_populated_places.geojson","license":"public domain"},"geometry":{"type":"Point","coordinates":[-56.186823,-34.905376]}},{"type":"Feature","properties":{"name":"洛美","name_en":"Lomé","region_code":"TGO","population":1452000,"source_year":"","source_name":"Natural Earth populated places","source_url":"https://raw.githubusercontent.com/nvkelso/natural-earth-vector/master/geojson/ne_110m_populated_places.geojson","license":"public domain"},"geometry":{"type":"Point","coordinates":[1.220811,6.133883]}},{"type":"Feature","properties":{"name":"突尼斯","name_en":"Tunis","region_code":"TUN","population":2412500,"source_year":"","source_name":"Natural Earth populated places","source_url":"https://raw.githubusercontent.com/nvkelso/natural-earth-vector/master/geojson/ne_110m_populated_places.geojson","license":"public domain"},"geometry":{"type":"Point","coordinates":[10.179678,36.802778]}},{"type":"Feature","properties":{"name":"阿布扎比","name_en":"Abu Dhabi","region_code":"ARE","population":603492,"source_year":"","source_name":"Natural Earth populated places","source_url":"https://raw.githubusercontent.com/nvkelso/natural-earth-vector/master/geojson/ne_110m_populated_places.geojson","license":"public domain"},"geometry":{"type":"Point","coordinates":[54.366593,24.466684]}},{"type":"Feature","properties":{"name":"阿什哈巴德","name_en":"Ashgabat","region_code":"TKM","population":727700,"source_year":"","source_name":"Natural Earth populated places","source_url":"https://raw.githubusercontent.com/nvkelso/natural-earth-vector/master/geojson/ne_110m_populated_places.geojson","license":"public domain"},"geometry":{"type":"Point","coordinates":[58.383299,37.949995]}},{"type":"Feature","properties":{"name":"卢萨卡","name_en":"Lusaka","region_code":"ZMB","population":1328000,"source_year":"","source_name":"Natural Earth populated places","source_url":"https://raw.githubusercontent.com/nvkelso/natural-earth-vector/master/geojson/ne_110m_populated_places.geojson","license":"public domain"},"geometry":{"type":"Point","coordinates":[28.281382,-15.414698]}},{"type":"Feature","properties":{"name":"哈拉雷","name_en":"Harare","region_code":"ZWE","population":1572000,"source_year":"","source_name":"Natural Earth populated places","source_url":"https://raw.githubusercontent.com/nvkelso/natural-earth-vector/master/geojson/ne_110m_populated_places.geojson","license":"public domain"},"geometry":{"type":"Point","coordinates":[31.042764,-17.815844]}},{"type":"Feature","properties":{"name":"帝力","name_en":"Dili","region_code":"TLS","population":234331,"source_year":"","source_name":"Natural Earth populated places","source_url":"https://raw.githubusercontent.com/nvkelso/natural-earth-vector/master/geojson/ne_110m_populated_places.geojson","license":"public domain"},"geometry":{"type":"Point","coordinates":[125.579456,-8.559388]}},{"type":"Feature","properties":{"name":"维拉港","name_en":"Port Vila","region_code":"VUT","population":44040,"source_year":"","source_name":"Natural Earth populated places","source_url":"https://raw.githubusercontent.com/nvkelso/natural-earth-vector/master/geojson/ne_110m_populated_places.geojson","license":"public domain"},"geometry":{"type":"Point","coordinates":[168.316641,-17.73335]}},{"type":"Feature","properties":{"name":"特古西加尔巴","name_en":"Tegucigalpa","region_code":"HND","population":946000,"source_year":"","source_name":"Natural Earth populated places","source_url":"https://raw.githubusercontent.com/nvkelso/natural-earth-vector/master/geojson/ne_110m_populated_places.geojson","license":"public domain"},"geometry":{"type":"Point","coordinates":[-87.219475,14.103991]}},{"type":"Feature","properties":{"name":"乔治敦","name_en":"Georgetown","region_code":"GUY","population":264350,"source_year":"","source_name":"Natural Earth populated places","source_url":"https://raw.githubusercontent.com/nvkelso/natural-earth-vector/master/geojson/ne_110m_populated_places.geojson","license":"public domain"},"geometry":{"type":"Point","coordinates":[-58.167029,6.801974]}},{"type":"Feature","properties":{"name":"雷克雅未克","name_en":"Reykjavík","region_code":"ISL","population":166212,"source_year":"","source_name":"Natural Earth populated places","source_url":"https://raw.githubusercontent.com/nvkelso/natural-earth-vector/master/geojson/ne_110m_populated_places.geojson","license":"public domain"},"geometry":{"type":"Point","coordinates":[-21.936546,64.143459]}},{"type":"Feature","properties":{"name":"太子港","name_en":"Port-au-Prince","region_code":"HTI","population":1998000,"source_year":"","source_name":"Natural Earth populated places","source_url":"https://raw.githubusercontent.com/nvkelso/natural-earth-vector/master/geojson/ne_110m_populated_places.geojson","license":"public domain"},"geometry":{"type":"Point","coordinates":[-72.33798,18.54297]}},{"type":"Feature","properties":{"name":"坎帕拉","name_en":"Kampala","region_code":"UGA","population":1420000,"source_year":"","source_name":"Natural Earth populated places","source_url":"https://raw.githubusercontent.com/nvkelso/natural-earth-vector/master/geojson/ne_110m_populated_places.geojson","license":"public domain"},"geometry":{"type":"Point","coordinates":[32.581378,0.318605]}},{"type":"Feature","properties":{"name":"帕拉马里博","name_en":"Paramaribo","region_code":"SUR","population":254169,"source_year":"","source_name":"Natural Earth populated places","source_url":"https://raw.githubusercontent.com/nvkelso/natural-earth-vector/master/geojson/ne_110m_populated_places.geojson","license":"public domain"},"geometry":{"type":"Point","coordinates":[-55.167031,5.83503]}},{"type":"Feature","properties":{"name":"尼亚美","name_en":"Niamey","region_code":"NER","population":915000,"source_year":"","source_name":"Natural Earth populated places","source_url":"https://raw.githubusercontent.com/nvkelso/natural-earth-vector/master/geojson/ne_110m_populated_places.geojson","license":"public domain"},"geometry":{"type":"Point","coordinates":[2.11471,13.518652]}},{"type":"Feature","properties":{"name":"杜尚别","name_en":"Dushanbe","region_code":"TJK","population":1086244,"source_year":"","source_name":"Natural Earth populated places","source_url":"https://raw.githubusercontent.com/nvkelso/natural-earth-vector/master/geojson/ne_110m_populated_places.geojson","license":"public domain"},"geometry":{"type":"Point","coordinates":[68.773879,38.560035]}},{"type":"Feature","properties":{"name":"亚松森","name_en":"Asunción","region_code":"PRY","population":1870000,"source_year":"","source_name":"Natural Earth populated places","source_url":"https://raw.githubusercontent.com/nvkelso/natural-earth-vector/master/geojson/ne_110m_populated_places.geojson","license":"public domain"},"geometry":{"type":"Point","coordinates":[-57.625834,-25.290671]}},{"type":"Feature","properties":{"name":"馬拿瓜","name_en":"Managua","region_code":"NIC","population":920000,"source_year":"","source_name":"Natural Earth populated places","source_url":"https://raw.githubusercontent.com/nvkelso/natural-earth-vector/master/geojson/ne_110m_populated_places.geojson","license":"public domain"},"geometry":{"type":"Point","coordinates":[-86.270437,12.154962]}},{"type":"Feature","properties":{"name":"弗里敦","name_en":"Freetown","region_code":"SLE","population":827000,"source_year":"","source_name":"Natural Earth populated places","source_url":"https://raw.githubusercontent.com/nvkelso/natural-earth-vector/master/geojson/ne_110m_populated_places.geojson","license":"public domain"},"geometry":{"type":"Point","coordinates":[-13.236162,8.471957]}},{"type":"Feature","properties":{"name":"伊斯兰堡","name_en":"Islamabad","region_code":"PAK","population":780000,"source_year":"","source_name":"Natural Earth populated places","source_url":"https://raw.githubusercontent.com/nvkelso/natural-earth-vector/master/geojson/ne_110m_populated_places.geojson","license":"public domain"},"geometry":{"type":"Point","coordinates":[73.08063,33.689368]}},{"type":"Feature","properties":{"name":"加德满都","name_en":"Kathmandu","region_code":"NPL","population":895000,"source_year":"","source_name":"Natural Earth populated places","source_url":"https://raw.githubusercontent.com/nvkelso/natural-earth-vector/master/geojson/ne_110m_populated_places.geojson","license":"public domain"},"geometry":{"type":"Point","coordinates":[85.314696,27.718638]}},{"type":"Feature","properties":{"name":"布隆方丹","name_en":"Bloemfontein","region_code":"ZAF","population":463064,"source_year":"","source_name":"Natural Earth populated places","source_url":"https://raw.githubusercontent.com/nvkelso/natural-earth-vector/master/geojson/ne_110m_populated_places.geojson","license":"public domain"},"geometry":{"type":"Point","coordinates":[26.229913,-29.119994]}},{"type":"Feature","properties":{"name":"比勒陀利亚","name_en":"Pretoria","region_code":"ZAF","population":1338000,"source_year":"","source_name":"Natural Earth populated places","source_url":"https://raw.githubusercontent.com/nvkelso/natural-earth-vector/master/geojson/ne_110m_populated_places.geojson","license":"public domain"},"geometry":{"type":"Point","coordinates":[28.227483,-25.704975]}},{"type":"Feature","properties":{"name":"莫尔兹比港","name_en":"Port Moresby","region_code":"PNG","population":283733,"source_year":"","source_name":"Natural Earth populated places","source_url":"https://raw.githubusercontent.com/nvkelso/natural-earth-vector/master/geojson/ne_110m_populated_places.geojson","license":"public domain"},"geometry":{"type":"Point","coordinates":[147.192504,-9.464708]}},{"type":"Feature","properties":{"name":"霍尼亚拉","name_en":"Honiara","region_code":"SLB","population":76328,"source_year":"","source_name":"Natural Earth populated places","source_url":"https://raw.githubusercontent.com/nvkelso/natural-earth-vector/master/geojson/ne_110m_populated_places.geojson","license":"public domain"},"geometry":{"type":"Point","coordinates":[159.949766,-9.437994]}},{"type":"Feature","properties":{"name":"巴拿马城","name_en":"Panama City","region_code":"PAN","population":1281000,"source_year":"","source_name":"Natural Earth populated places","source_url":"https://raw.githubusercontent.com/nvkelso/natural-earth-vector/master/geojson/ne_110m_populated_places.geojson","license":"public domain"},"geometry":{"type":"Point","coordinates":[-79.534983,8.969963]}},{"type":"Feature","properties":{"name":"拉巴特","name_en":"Rabat","region_code":"MAR","population":1705000,"source_year":"","source_name":"Natural Earth populated places","source_url":"https://raw.githubusercontent.com/nvkelso/natural-earth-vector/master/geojson/ne_110m_populated_places.geojson","license":"public domain"},"geometry":{"type":"Point","coordinates":[-6.836408,34.025307]}},{"type":"Feature","properties":{"name":"基希讷乌","name_en":"Chișinău","region_code":"MDA","population":688134,"source_year":"","source_name":"Natural Earth populated places","source_url":"https://raw.githubusercontent.com/nvkelso/natural-earth-vector/master/geojson/ne_110m_populated_places.geojson","license":"public domain"},"geometry":{"type":"Point","coordinates":[28.857711,47.005024]}},{"type":"Feature","properties":{"name":"马普托","name_en":"Maputo","region_code":"MOZ","population":1446000,"source_year":"","source_name":"Natural Earth populated places","source_url":"https://raw.githubusercontent.com/nvkelso/natural-earth-vector/master/geojson/ne_110m_populated_places.geojson","license":"public domain"},"geometry":{"type":"Point","coordinates":[32.587217,-25.953332]}},{"type":"Feature","properties":{"name":"摩加迪休","name_en":"Mogadishu","region_code":"SOM","population":1100000,"source_year":"","source_name":"Natural Earth populated places","source_url":"https://raw.githubusercontent.com/nvkelso/natural-earth-vector/master/geojson/ne_110m_populated_places.geojson","license":"public domain"},"geometry":{"type":"Point","coordinates":[45.364732,2.068627]}},{"type":"Feature","properties":{"name":"马斯喀特","name_en":"Muscat","region_code":"OMN","population":734697,"source_year":"","source_name":"Natural Earth populated places","source_url":"https://raw.githubusercontent.com/nvkelso/natural-earth-vector/master/geojson/ne_110m_populated_places.geojson","license":"public domain"},"geometry":{"type":"Point","coordinates":[58.378311,23.585179]}},{"type":"Feature","properties":{"name":"科伦坡","name_en":"Colombo","region_code":"LKA","population":217000,"source_year":"","source_name":"Natural Earth populated places","source_url":"https://raw.githubusercontent.com/nvkelso/natural-earth-vector/master/geojson/ne_110m_populated_places.geojson","license":"public domain"},"geometry":{"type":"Point","coordinates":[79.857751,6.931966]}},{"type":"Feature","properties":{"name":"乌兰巴托","name_en":"Ulaanbaatar","region_code":"MNG","population":885000,"source_year":"","source_name":"Natural Earth populated places","source_url":"https://raw.githubusercontent.com/nvkelso/natural-earth-vector/master/geojson/ne_110m_populated_places.geojson","license":"public domain"},"geometry":{"type":"Point","coordinates":[106.91467,47.918619]}},{"type":"Feature","properties":{"name":"温得和克","name_en":"Windhoek","region_code":"NAM","population":268132,"source_year":"","source_name":"Natural Earth populated places","source_url":"https://raw.githubusercontent.com/nvkelso/natural-earth-vector/master/geojson/ne_110m_populated_places.geojson","license":"public domain"},"geometry":{"type":"Point","coordinates":[17.083546,-22.570006]}},{"type":"Feature","properties":{"name":"阿布贾","name_en":"Abuja","region_code":"NGA","population":1576000,"source_year":"","source_name":"Natural Earth populated places","source_url":"https://raw.githubusercontent.com/nvkelso/natural-earth-vector/master/geojson/ne_110m_populated_places.geojson","license":"public domain"},"geometry":{"type":"Point","coordinates":[7.489505,9.05462]}},{"type":"Feature","properties":{"name":"比绍","name_en":"Bissau","region_code":"GNB","population":403339,"source_year":"","source_name":"Natural Earth populated places","source_url":"https://raw.githubusercontent.com/nvkelso/natural-earth-vector/master/geojson/ne_110m_populated_places.geojson","license":"public domain"},"geometry":{"type":"Point","coordinates":[-15.598361,11.865024]}},{"type":"Feature","properties":{"name":"安曼","name_en":"Amman","region_code":"JOR","population":1060000,"source_year":"","source_name":"Natural Earth populated places","source_url":"https://raw.githubusercontent.com/nvkelso/natural-earth-vector/master/geojson/ne_110m_populated_places.geojson","license":"public domain"},"geometry":{"type":"Point","coordinates":[35.931354,31.951971]}},{"type":"Feature","properties":{"name":"维尔纽斯","name_en":"Vilnius","region_code":"LTU","population":542366,"source_year":"","source_name":"Natural Earth populated places","source_url":"https://raw.githubusercontent.com/nvkelso/natural-earth-vector/master/geojson/ne_110m_populated_places.geojson","license":"public domain"},"geometry":{"type":"Point","coordinates":[25.316635,54.683366]}},{"type":"Feature","properties":{"name":"里加","name_en":"Riga","region_code":"LVA","population":742572,"source_year":"","source_name":"Natural Earth populated places","source_url":"https://raw.githubusercontent.com/nvkelso/natural-earth-vector/master/geojson/ne_110m_populated_places.geojson","license":"public domain"},"geometry":{"type":"Point","coordinates":[24.099965,56.950024]}},{"type":"Feature","properties":{"name":"比什凯克","name_en":"Bishkek","region_code":"KGZ","population":837000,"source_year":"","source_name":"Natural Earth populated places","source_url":"https://raw.githubusercontent.com/nvkelso/natural-earth-vector/master/geojson/ne_110m_populated_places.geojson","license":"public domain"},"geometry":{"type":"Point","coordinates":[74.583258,42.875025]}},{"type":"Feature","properties":{"name":"马塞卢","name_en":"Maseru","region_code":"LSO","population":361324,"source_year":"","source_name":"Natural Earth populated places","source_url":"https://raw.githubusercontent.com/nvkelso/natural-earth-vector/master/geojson/ne_110m_populated_places.geojson","license":"public domain"},"geometry":{"type":"Point","coordinates":[27.483273,-29.316674]}},{"type":"Feature","properties":{"name":"塔那那利佛","name_en":"Antananarivo","region_code":"MDG","population":1697000,"source_year":"","source_name":"Natural Earth populated places","source_url":"https://raw.githubusercontent.com/nvkelso/natural-earth-vector/master/geojson/ne_110m_populated_places.geojson","license":"public domain"},"geometry":{"type":"Point","coordinates":[47.514678,-18.914691]}},{"type":"Feature","properties":{"name":"基多","name_en":"Quito","region_code":"ECU","population":1701000,"source_year":"","source_name":"Natural Earth populated places","source_url":"https://raw.githubusercontent.com/nvkelso/natural-earth-vector/master/geojson/ne_110m_populated_places.geojson","license":"public domain"},"geometry":{"type":"Point","coordinates":[-78.501997,-0.213042]}},{"type":"Feature","properties":{"name":"圣荷西","name_en":"San José","region_code":"CRI","population":1284000,"source_year":"","source_name":"Natural Earth populated places","source_url":"https://raw.githubusercontent.com/nvkelso/natural-earth-vector/master/geojson/ne_110m_populated_places.geojson","license":"public domain"},"geometry":{"type":"Point","coordinates":[-84.078814,9.930371]}},{"type":"Feature","properties":{"name":"圣萨尔瓦多","name_en":"San Salvador","region_code":"SLV","population":1433000,"source_year":"","source_name":"Natural Earth populated places","source_url":"https://raw.githubusercontent.com/nvkelso/natural-earth-vector/master/geojson/ne_110m_populated_places.geojson","license":"public domain"},"geometry":{"type":"Point","coordinates":[-89.215576,13.70328]}},{"type":"Feature","properties":{"name":"京斯敦","name_en":"Kingston","region_code":"JAM","population":937700,"source_year":"","source_name":"Natural Earth populated places","source_url":"https://raw.githubusercontent.com/nvkelso/natural-earth-vector/master/geojson/ne_110m_populated_places.geojson","license":"public domain"},"geometry":{"type":"Point","coordinates":[-76.767434,17.977077]}},{"type":"Feature","properties":{"name":"恩贾梅纳","name_en":"N'Djamena","region_code":"TCD","population":989000,"source_year":"","source_name":"Natural Earth populated places","source_url":"https://raw.githubusercontent.com/nvkelso/natural-earth-vector/master/geojson/ne_110m_populated_places.geojson","license":"public domain"},"geometry":{"type":"Point","coordinates":[15.047202,12.115042]}},{"type":"Feature","properties":{"name":"马拉博","name_en":"Malabo","region_code":"GNQ","population":155963,"source_year":"","source_name":"Natural Earth populated places","source_url":"https://raw.githubusercontent.com/nvkelso/natural-earth-vector/master/geojson/ne_110m_populated_places.geojson","license":"public domain"},"geometry":{"type":"Point","coordinates":[8.783278,3.750015]}},{"type":"Feature","properties":{"name":"阿斯马拉","name_en":"Asmara","region_code":"ERI","population":620802,"source_year":"","source_name":"Natural Earth populated places","source_url":"https://raw.githubusercontent.com/nvkelso/natural-earth-vector/master/geojson/ne_110m_populated_places.geojson","license":"public domain"},"geometry":{"type":"Point","coordinates":[38.933324,15.333339]}},{"type":"Feature","properties":{"name":"萨格勒布","name_en":"Zagreb","region_code":"HRV","population":722526,"source_year":"","source_name":"Natural Earth populated places","source_url":"https://raw.githubusercontent.com/nvkelso/natural-earth-vector/master/geojson/ne_110m_populated_places.geojson","license":"public domain"},"geometry":{"type":"Point","coordinates":[15.999995,45.800007]}},{"type":"Feature","properties":{"name":"塔林","name_en":"Tallinn","region_code":"EST","population":394024,"source_year":"","source_name":"Natural Earth populated places","source_url":"https://raw.githubusercontent.com/nvkelso/natural-earth-vector/master/geojson/ne_110m_populated_places.geojson","license":"public domain"},"geometry":{"type":"Point","coordinates":[24.728041,59.433877]}},{"type":"Feature","properties":{"name":"利隆圭","name_en":"Lilongwe","region_code":"MWI","population":646750,"source_year":"","source_name":"Natural Earth populated places","source_url":"https://raw.githubusercontent.com/nvkelso/natural-earth-vector/master/geojson/ne_110m_populated_places.geojson","license":"public domain"},"geometry":{"type":"Point","coordinates":[33.783302,-13.983295]}},{"type":"Feature","properties":{"name":"瓜地馬拉","name_en":"Guatemala City","region_code":"GTM","population":1024000,"source_year":"","source_name":"Natural Earth populated places","source_url":"https://raw.githubusercontent.com/nvkelso/natural-earth-vector/master/geojson/ne_110m_populated_places.geojson","license":"public domain"},"geometry":{"type":"Point","coordinates":[-90.528911,14.623081]}},{"type":"Feature","properties":{"name":"利伯维尔","name_en":"Libreville","region_code":"GAB","population":578156,"source_year":"","source_name":"Natural Earth populated places","source_url":"https://raw.githubusercontent.com/nvkelso/natural-earth-vector/master/geojson/ne_110m_populated_places.geojson","license":"public domain"},"geometry":{"type":"Point","coordinates":[9.457965,0.385389]}},{"type":"Feature","properties":{"name":"苏瓦","name_en":"Suva","region_code":"FJI","population":175399,"source_year":"","source_name":"Natural Earth populated places","source_url":"https://raw.githubusercontent.com/nvkelso/natural-earth-vector/master/geojson/ne_110m_populated_places.geojson","license":"public domain"},"geometry":{"type":"Point","coordinates":[178.441707,-18.133016]}},{"type":"Feature","properties":{"name":"瓦尔帕莱索","name_en":"Valparaíso","region_code":"CHL","population":854000,"source_year":"","source_name":"Natural Earth populated places","source_url":"https://raw.githubusercontent.com/nvkelso/natural-earth-vector/master/geojson/ne_110m_populated_places.geojson","license":"public domain"},"geometry":{"type":"Point","coordinates":[-71.617026,-33.047739]}},{"type":"Feature","properties":{"name":"努瓦克肖特","name_en":"Nouakchott","region_code":"MRT","population":742144,"source_year":"","source_name":"Natural Earth populated places","source_url":"https://raw.githubusercontent.com/nvkelso/natural-earth-vector/master/geojson/ne_110m_populated_places.geojson","license":"public domain"},"geometry":{"type":"Point","coordinates":[-15.97534,18.086427]}},{"type":"Feature","properties":{"name":"巴马科","name_en":"Bamako","region_code":"MLI","population":1494000,"source_year":"","source_name":"Natural Earth populated places","source_url":"https://raw.githubusercontent.com/nvkelso/natural-earth-vector/master/geojson/ne_110m_populated_places.geojson","license":"public domain"},"geometry":{"type":"Point","coordinates":[-8.001985,12.65196]}},{"type":"Feature","properties":{"name":"贝鲁特","name_en":"Beirut","region_code":"LBN","population":1846000,"source_year":"","source_name":"Natural Earth populated places","source_url":"https://raw.githubusercontent.com/nvkelso/natural-earth-vector/master/geojson/ne_110m_populated_places.geojson","license":"public domain"},"geometry":{"type":"Point","coordinates":[35.507762,33.873921]}},{"type":"Feature","properties":{"name":"第比利斯","name_en":"Tbilisi","region_code":"GEO","population":1100000,"source_year":"","source_name":"Natural Earth populated places","source_url":"https://raw.githubusercontent.com/nvkelso/natural-earth-vector/master/geojson/ne_110m_populated_places.geojson","license":"public domain"},"geometry":{"type":"Point","coordinates":[44.78885,41.726956]}},{"type":"Feature","properties":{"name":"努尔苏丹","name_en":"Nur-Sultan","region_code":"KAZ","population":345604,"source_year":"","source_name":"Natural Earth populated places","source_url":"https://raw.githubusercontent.com/nvkelso/natural-earth-vector/master/geojson/ne_110m_populated_places.geojson","license":"public domain"},"geometry":{"type":"Point","coordinates":[71.427774,51.181125]}},{"type":"Feature","properties":{"name":"万象","name_en":"Vientiane","region_code":"LAO","population":754000,"source_year":"","source_name":"Natural Earth populated places","source_url":"https://raw.githubusercontent.com/nvkelso/natural-earth-vector/master/geojson/ne_110m_populated_places.geojson","license":"public domain"},"geometry":{"type":"Point","coordinates":[102.59998,17.966693]}},{"type":"Feature","properties":{"name":"布拉柴维尔","name_en":"Brazzaville","region_code":"COG","population":1355000,"source_year":"","source_name":"Natural Earth populated places","source_url":"https://raw.githubusercontent.com/nvkelso/natural-earth-vector/master/geojson/ne_110m_populated_places.geojson","license":"public domain"},"geometry":{"type":"Point","coordinates":[15.282744,-4.25724]}},{"type":"Feature","properties":{"name":"科纳克里","name_en":"Conakry","region_code":"GIN","population":1494000,"source_year":"","source_name":"Natural Earth populated places","source_url":"https://raw.githubusercontent.com/nvkelso/natural-earth-vector/master/geojson/ne_110m_populated_places.geojson","license":"public domain"},"geometry":{"type":"Point","coordinates":[-13.682181,9.533469]}},{"type":"Feature","properties":{"name":"亚穆苏克罗","name_en":"Yamoussoukro","region_code":"CIV","population":206499,"source_year":"","source_name":"Natural Earth populated places","source_url":"https://raw.githubusercontent.com/nvkelso/natural-earth-vector/master/geojson/ne_110m_populated_places.geojson","license":"public domain"},"geometry":{"type":"Point","coordinates":[-5.275503,6.818381]}},{"type":"Feature","properties":{"name":"渥太华","name_en":"Ottawa","region_code":"CAN","population":1145000,"source_year":"","source_name":"Natural Earth populated places","source_url":"https://raw.githubusercontent.com/nvkelso/natural-earth-vector/master/geojson/ne_110m_populated_places.geojson","license":"public domain"},"geometry":{"type":"Point","coordinates":[-75.701961,45.418643]}},{"type":"Feature","properties":{"name":"贝尔格莱德","name_en":"Belgrade","region_code":"SRB","population":1099000,"source_year":"","source_name":"Natural Earth populated places","source_url":"https://raw.githubusercontent.com/nvkelso/natural-earth-vector/master/geojson/ne_110m_populated_places.geojson","license":"public domain"},"geometry":{"type":"Point","coordinates":[20.466045,44.820591]}},{"type":"Feature","properties":{"name":"斯里巴加湾","name_en":"Bandar Seri Begawan","region_code":"BRN","population":296500,"source_year":"","source_name":"Natural Earth populated places","source_url":"https://raw.githubusercontent.com/nvkelso/natural-earth-vector/master/geojson/ne_110m_populated_places.geojson","license":"public domain"},"geometry":{"type":"Point","coordinates":[114.933284,4.883331]}},{"type":"Feature","properties":{"name":"苏克雷","name_en":"Sucre","region_code":"BOL","population":224838,"source_year":"","source_name":"Natural Earth populated places","source_url":"https://raw.githubusercontent.com/nvkelso/natural-earth-vector/master/geojson/ne_110m_populated_places.geojson","license":"public domain"},"geometry":{"type":"Point","coordinates":[-65.259516,-19.040971]}},{"type":"Feature","properties":{"name":"贝尔墨邦","name_en":"Belmopan","region_code":"BLZ","population":15220,"source_year":"","source_name":"Natural Earth populated places","source_url":"https://raw.githubusercontent.com/nvkelso/natural-earth-vector/master/geojson/ne_110m_populated_places.geojson","license":"public domain"},"geometry":{"type":"Point","coordinates":[-88.767073,17.252033]}},{"type":"Feature","properties":{"name":"班吉","name_en":"Bangui","region_code":"CAF","population":831925,"source_year":"","source_name":"Natural Earth populated places","source_url":"https://raw.githubusercontent.com/nvkelso/natural-earth-vector/master/geojson/ne_110m_populated_places.geojson","license":"public domain"},"geometry":{"type":"Point","coordinates":[18.558288,4.366644]}},{"type":"Feature","properties":{"name":"雅温得","name_en":"Yaoundé","region_code":"CMR","population":1611000,"source_year":"","source_name":"Natural Earth populated places","source_url":"https://raw.githubusercontent.com/nvkelso/natural-earth-vector/master/geojson/ne_110m_populated_places.geojson","license":"public domain"},"geometry":{"type":"Point","coordinates":[11.514705,3.868647]}},{"type":"Feature","properties":{"name":"地拉那","name_en":"Tirana","region_code":"ALB","population":895350,"source_year":"","source_name":"Natural Earth populated places","source_url":"https://raw.githubusercontent.com/nvkelso/natural-earth-vector/master/geojson/ne_110m_populated_places.geojson","license":"public domain"},"geometry":{"type":"Point","coordinates":[19.818883,41.327541]}},{"type":"Feature","properties":{"name":"埃里温","name_en":"Yerevan","region_code":"ARM","population":1102000,"source_year":"","source_name":"Natural Earth populated places","source_url":"https://raw.githubusercontent.com/nvkelso/natural-earth-vector/master/geojson/ne_110m_populated_places.geojson","license":"public domain"},"geometry":{"type":"Point","coordinates":[44.511606,40.183097]}},{"type":"Feature","properties":{"name":"巴库","name_en":"Baku","region_code":"AZE","population":2122300,"source_year":"","source_name":"Natural Earth populated places","source_url":"https://raw.githubusercontent.com/nvkelso/natural-earth-vector/master/geojson/ne_110m_populated_places.geojson","license":"public domain"},"geometry":{"type":"Point","coordinates":[49.860271,40.397218]}},{"type":"Feature","properties":{"name":"金边","name_en":"Phnom Penh","region_code":"KHM","population":1466000,"source_year":"","source_name":"Natural Earth populated places","source_url":"https://raw.githubusercontent.com/nvkelso/natural-earth-vector/master/geojson/ne_110m_populated_places.geojson","license":"public domain"},"geometry":{"type":"Point","coordinates":[104.914689,11.551976]}},{"type":"Feature","properties":{"name":"拉巴斯","name_en":"La Paz","region_code":"BOL","population":1590000,"source_year":"","source_name":"Natural Earth populated places","source_url":"https://raw.githubusercontent.com/nvkelso/natural-earth-vector/master/geojson/ne_110m_populated_places.geojson","license":"public domain"},"geometry":{"type":"Point","coordinates":[-68.151931,-16.496028]}},{"type":"Feature","properties":{"name":"科托努","name_en":"Cotonou","region_code":"BEN","population":762000,"source_year":"","source_name":"Natural Earth populated places","source_url":"https://raw.githubusercontent.com/nvkelso/natural-earth-vector/master/geojson/ne_110m_populated_places.geojson","license":"public domain"},"geometry":{"type":"Point","coordinates":[2.404355,6.36298]}},{"type":"Feature","properties":{"name":"索非亚","name_en":"Sofia","region_code":"BGR","population":1185000,"source_year":"","source_name":"Natural Earth populated places","source_url":"https://raw.githubusercontent.com/nvkelso/natural-earth-vector/master/geojson/ne_110m_populated_places.geojson","license":"public domain"},"geometry":{"type":"Point","coordinates":[23.314708,42.685295]}},{"type":"Feature","properties":{"name":"明斯克","name_en":"Minsk","region_code":"BLR","population":1805000,"source_year":"","source_name":"Natural Earth populated places","source_url":"https://raw.githubusercontent.com/nvkelso/natural-earth-vector/master/geojson/ne_110m_populated_places.geojson","license":"public domain"},"geometry":{"type":"Point","coordinates":[27.564681,53.901923]}},{"type":"Feature","properties":{"name":"廷布","name_en":"Thimphu","region_code":"BTN","population":98676,"source_year":"","source_name":"Natural Earth populated places","source_url":"https://raw.githubusercontent.com/nvkelso/natural-earth-vector/master/geojson/ne_110m_populated_places.geojson","license":"public domain"},"geometry":{"type":"Point","coordinates":[89.639014,27.472986]}},{"type":"Feature","properties":{"name":"嘉柏隆里","name_en":"Gaborone","region_code":"BWA","population":208411,"source_year":"","source_name":"Natural Earth populated places","source_url":"https://raw.githubusercontent.com/nvkelso/natural-earth-vector/master/geojson/ne_110m_populated_places.geojson","license":"public domain"},"geometry":{"type":"Point","coordinates":[25.911948,-24.646314]}},{"type":"Feature","properties":{"name":"堪培拉","name_en":"Canberra","region_code":"AUS","population":327700,"source_year":"","source_name":"Natural Earth populated places","source_url":"https://raw.githubusercontent.com/nvkelso/natural-earth-vector/master/geojson/ne_110m_populated_places.geojson","license":"public domain"},"geometry":{"type":"Point","coordinates":[149.129026,-35.283029]}},{"type":"Feature","properties":{"name":"瓦加杜古","name_en":"Ouagadougou","region_code":"BFA","population":1149000,"source_year":"","source_name":"Natural Earth populated places","source_url":"https://raw.githubusercontent.com/nvkelso/natural-earth-vector/master/geojson/ne_110m_populated_places.geojson","license":"public domain"},"geometry":{"type":"Point","coordinates":[-1.52667,12.372262]}},{"type":"Feature","properties":{"name":"萨拉热窝","name_en":"Sarajevo","region_code":"BIH","population":696731,"source_year":"","source_name":"Natural Earth populated places","source_url":"https://raw.githubusercontent.com/nvkelso/natural-earth-vector/master/geojson/ne_110m_populated_places.geojson","license":"public domain"},"geometry":{"type":"Point","coordinates":[18.383002,43.850022]}},{"type":"Feature","properties":{"name":"奈比多","name_en":"Naypyidaw","region_code":"MMR","population":930000,"source_year":"","source_name":"Natural Earth populated places","source_url":"https://raw.githubusercontent.com/nvkelso/natural-earth-vector/master/geojson/ne_110m_populated_places.geojson","license":"public domain"},"geometry":{"type":"Point","coordinates":[96.116673,19.768503]}},{"type":"Feature","properties":{"name":"努库阿洛法","name_en":"Nuku'alofa","region_code":"TON","population":42620,"source_year":"","source_name":"Natural Earth populated places","source_url":"https://raw.githubusercontent.com/nvkelso/natural-earth-vector/master/geojson/ne_110m_populated_places.geojson","license":"public domain"},"geometry":{"type":"Point","coordinates":[-175.220564,-21.138512]}},{"type":"Feature","properties":{"name":"哈尔格萨","name_en":"Hargeisa","region_code":"SOL","population":477876,"source_year":"","source_name":"Natural Earth populated places","source_url":"https://raw.githubusercontent.com/nvkelso/natural-earth-vector/master/geojson/ne_110m_populated_places.geojson","license":"public domain"},"geometry":{"type":"Point","coordinates":[44.06531,9.560022]}},{"type":"Feature","properties":{"name":"維多利亞","name_en":"Victoria","region_code":"SYC","population":33576,"source_year":"","source_name":"Natural Earth populated places","source_url":"https://raw.githubusercontent.com/nvkelso/natural-earth-vector/master/geojson/ne_110m_populated_places.geojson","license":"public domain"},"geometry":{"type":"Point","coordinates":[55.44999,-4.616632]}},{"type":"Feature","properties":{"name":"圣多美","name_en":"São Tomé","region_code":"STP","population":88219,"source_year":"","source_name":"Natural Earth populated places","source_url":"https://raw.githubusercontent.com/nvkelso/natural-earth-vector/master/geojson/ne_110m_populated_places.geojson","license":"public domain"},"geometry":{"type":"Point","coordinates":[6.72965,0.337466]}},{"type":"Feature","properties":{"name":"阿皮亚","name_en":"Apia","region_code":"WSM","population":61916,"source_year":"","source_name":"Natural Earth populated places","source_url":"https://raw.githubusercontent.com/nvkelso/natural-earth-vector/master/geojson/ne_110m_populated_places.geojson","license":"public domain"},"geometry":{"type":"Point","coordinates":[-171.768599,-13.835715]}},{"type":"Feature","properties":{"name":"瓦莱塔","name_en":"Valletta","region_code":"MLT","population":368250,"source_year":"","source_name":"Natural Earth populated places","source_url":"https://raw.githubusercontent.com/nvkelso/natural-earth-vector/master/geojson/ne_110m_populated_places.geojson","license":"public domain"},"geometry":{"type":"Point","coordinates":[14.514711,35.899732]}},{"type":"Feature","properties":{"name":"马累","name_en":"Malé","region_code":"MDV","population":112927,"source_year":"","source_name":"Natural Earth populated places","source_url":"https://raw.githubusercontent.com/nvkelso/natural-earth-vector/master/geojson/ne_110m_populated_places.geojson","license":"public domain"},"geometry":{"type":"Point","coordinates":[73.508901,4.172037]}},{"type":"Feature","properties":{"name":"耶路撒冷","name_en":"Jerusalem","region_code":"ISR","population":1029300,"source_year":"","source_name":"Natural Earth populated places","source_url":"https://raw.githubusercontent.com/nvkelso/natural-earth-vector/master/geojson/ne_110m_populated_places.geojson","license":"public domain"},"geometry":{"type":"Point","coordinates":[35.206626,31.778408]}},{"type":"Feature","properties":{"name":"培亞","name_en":"Praia","region_code":"CPV","population":113364,"source_year":"","source_name":"Natural Earth populated places","source_url":"https://raw.githubusercontent.com/nvkelso/natural-earth-vector/master/geojson/ne_110m_populated_places.geojson","license":"public domain"},"geometry":{"type":"Point","coordinates":[-23.516689,14.916698]}},{"type":"Feature","properties":{"name":"拿骚","name_en":"Nassau","region_code":"BHS","population":227940,"source_year":"","source_name":"Natural Earth populated places","source_url":"https://raw.githubusercontent.com/nvkelso/natural-earth-vector/master/geojson/ne_110m_populated_places.geojson","license":"public domain"},"geometry":{"type":"Point","coordinates":[-77.350044,25.08339]}},{"type":"Feature","properties":{"name":"尼科西亚","name_en":"Nicosia","region_code":"CYP","population":224300,"source_year":"","source_name":"Natural Earth populated places","source_url":"https://raw.githubusercontent.com/nvkelso/natural-earth-vector/master/geojson/ne_110m_populated_places.geojson","license":"public domain"},"geometry":{"type":"Point","coordinates":[33.366635,35.166677]}},{"type":"Feature","properties":{"name":"惠灵顿","name_en":"Wellington","region_code":"NZL","population":393400,"source_year":"","source_name":"Natural Earth populated places","source_url":"https://raw.githubusercontent.com/nvkelso/natural-earth-vector/master/geojson/ne_110m_populated_places.geojson","license":"public domain"},"geometry":{"type":"Point","coordinates":[174.777201,-41.292068]}},{"type":"Feature","properties":{"name":"河内","name_en":"Hanoi","region_code":"VNM","population":4378000,"source_year":"","source_name":"Natural Earth populated places","source_url":"https://raw.githubusercontent.com/nvkelso/natural-earth-vector/master/geojson/ne_110m_populated_places.geojson","license":"public domain"},"geometry":{"type":"Point","coordinates":[105.848068,21.035273]}},{"type":"Feature","properties":{"name":"安卡拉","name_en":"Ankara","region_code":"TUR","population":3716000,"source_year":"","source_name":"Natural Earth populated places","source_url":"https://raw.githubusercontent.com/nvkelso/natural-earth-vector/master/geojson/ne_110m_populated_places.geojson","license":"public domain"},"geometry":{"type":"Point","coordinates":[32.862446,39.929184]}},{"type":"Feature","properties":{"name":"布达佩斯","name_en":"Budapest","region_code":"HUN","population":1679000,"source_year":"","source_name":"Natural Earth populated places","source_url":"https://raw.githubusercontent.com/nvkelso/natural-earth-vector/master/geojson/ne_110m_populated_places.geojson","license":"public domain"},"geometry":{"type":"Point","coordinates":[19.081375,47.501952]}},{"type":"Feature","properties":{"name":"萨那","name_en":"Sanaa","region_code":"YEM","population":2008000,"source_year":"","source_name":"Natural Earth populated places","source_url":"https://raw.githubusercontent.com/nvkelso/natural-earth-vector/master/geojson/ne_110m_populated_places.geojson","license":"public domain"},"geometry":{"type":"Point","coordinates":[44.204648,15.356679]}},{"type":"Feature","properties":{"name":"布加勒斯特","name_en":"Bucharest","region_code":"ROU","population":1942000,"source_year":"","source_name":"Natural Earth populated places","source_url":"https://raw.githubusercontent.com/nvkelso/natural-earth-vector/master/geojson/ne_110m_populated_places.geojson","license":"public domain"},"geometry":{"type":"Point","coordinates":[26.098001,44.435318]}},{"type":"Feature","properties":{"name":"大马士革","name_en":"Damascus","region_code":"SYR","population":2466000,"source_year":"","source_name":"Natural Earth populated places","source_url":"https://raw.githubusercontent.com/nvkelso/natural-earth-vector/master/geojson/ne_110m_populated_places.geojson","license":"public domain"},"geometry":{"type":"Point","coordinates":[36.29805,33.50198]}},{"type":"Feature","properties":{"name":"里斯本","name_en":"Lisbon","region_code":"PRT","population":2812000,"source_year":"","source_name":"Natural Earth populated places","source_url":"https://raw.githubusercontent.com/nvkelso/natural-earth-vector/master/geojson/ne_110m_populated_places.geojson","license":"public domain"},"geometry":{"type":"Point","coordinates":[-9.146812,38.724669]}},{"type":"Feature","properties":{"name":"喀土穆","name_en":"Khartoum","region_code":"SDN","population":4754000,"source_year":"","source_name":"Natural Earth populated places","source_url":"https://raw.githubusercontent.com/nvkelso/natural-earth-vector/master/geojson/ne_110m_populated_places.geojson","license":"public domain"},"geometry":{"type":"Point","coordinates":[32.532233,15.590024]}},{"type":"Feature","properties":{"name":"奥斯陆","name_en":"Oslo","region_code":"NOR","population":835000,"source_year":"","source_name":"Natural Earth populated places","source_url":"https://raw.githubusercontent.com/nvkelso/natural-earth-vector/master/geojson/ne_110m_populated_places.geojson","license":"public domain"},"geometry":{"type":"Point","coordinates":[10.748033,59.918636]}},{"type":"Feature","properties":{"name":"华沙","name_en":"Warsaw","region_code":"POL","population":1707000,"source_year":"","source_name":"Natural Earth populated places","source_url":"https://raw.githubusercontent.com/nvkelso/natural-earth-vector/master/geojson/ne_110m_populated_places.geojson","license":"public domain"},"geometry":{"type":"Point","coordinates":[21.005347,52.230872]}},{"type":"Feature","properties":{"name":"平壤","name_en":"Pyongyang","region_code":"PRK","population":3300000,"source_year":"","source_name":"Natural Earth populated places","source_url":"https://raw.githubusercontent.com/nvkelso/natural-earth-vector/master/geojson/ne_110m_populated_places.geojson","license":"public domain"},"geometry":{"type":"Point","coordinates":[125.752745,39.021385]}},{"type":"Feature","properties":{"name":"三蘭港","name_en":"Dar es Salaam","region_code":"TZA","population":2930000,"source_year":"","source_name":"Natural Earth populated places","source_url":"https://raw.githubusercontent.com/nvkelso/natural-earth-vector/master/geojson/ne_110m_populated_places.geojson","license":"public domain"},"geometry":{"type":"Point","coordinates":[39.266396,-6.798067]}},{"type":"Feature","properties":{"name":"都柏林","name_en":"Dublin","region_code":"IRL","population":1059000,"source_year":"","source_name":"Natural Earth populated places","source_url":"https://raw.githubusercontent.com/nvkelso/natural-earth-vector/master/geojson/ne_110m_populated_places.geojson","license":"public domain"},"geometry":{"type":"Point","coordinates":[-6.25698,53.346731]}},{"type":"Feature","properties":{"name":"蒙罗维亚","name_en":"Monrovia","region_code":"LBR","population":1041000,"source_year":"","source_name":"Natural Earth populated places","source_url":"https://raw.githubusercontent.com/nvkelso/natural-earth-vector/master/geojson/ne_110m_populated_places.geojson","license":"public domain"},"geometry":{"type":"Point","coordinates":[-10.79966,6.314582]}},{"type":"Feature","properties":{"name":"吉隆坡","name_en":"Kuala Lumpur","region_code":"MYS","population":1448000,"source_year":"","source_name":"Natural Earth populated places","source_url":"https://raw.githubusercontent.com/nvkelso/natural-earth-vector/master/geojson/ne_110m_populated_places.geojson","license":"public domain"},"geometry":{"type":"Point","coordinates":[101.688699,3.139797]}},{"type":"Feature","properties":{"name":"哈瓦那","name_en":"Havana","region_code":"CUB","population":2174000,"source_year":"","source_name":"Natural Earth populated places","source_url":"https://raw.githubusercontent.com/nvkelso/natural-earth-vector/master/geojson/ne_110m_populated_places.geojson","license":"public domain"},"geometry":{"type":"Point","coordinates":[-82.366128,23.133905]}},{"type":"Feature","properties":{"name":"布拉格","name_en":"Prague","region_code":"CZE","population":1162000,"source_year":"","source_name":"Natural Earth populated places","source_url":"https://raw.githubusercontent.com/nvkelso/natural-earth-vector/master/geojson/ne_110m_populated_places.geojson","license":"public domain"},"geometry":{"type":"Point","coordinates":[14.422939,50.086967]}},{"type":"Feature","properties":{"name":"科威特城","name_en":"Kuwait City","region_code":"KWT","population":2063000,"source_year":"","source_name":"Natural Earth populated places","source_url":"https://raw.githubusercontent.com/nvkelso/natural-earth-vector/master/geojson/ne_110m_populated_places.geojson","license":"public domain"},"geometry":{"type":"Point","coordinates":[47.976355,29.371664]}},{"type":"Feature","properties":{"name":"圣多明哥","name_en":"Santo Domingo","region_code":"DOM","population":2154000,"source_year":"","source_name":"Natural Earth populated places","source_url":"https://raw.githubusercontent.com/nvkelso/natural-earth-vector/master/geojson/ne_110m_populated_places.geojson","license":"public domain"},"geometry":{"type":"Point","coordinates":[-69.929742,18.470745]}},{"type":"Feature","properties":{"name":"阿克拉","name_en":"Accra","region_code":"GHA","population":2121000,"source_year":"","source_name":"Natural Earth populated places","source_url":"https://raw.githubusercontent.com/nvkelso/natural-earth-vector/master/geojson/ne_110m_populated_places.geojson","license":"public domain"},"geometry":{"type":"Point","coordinates":[-0.218662,5.55198]}},{"type":"Feature","properties":{"name":"的黎波里","name_en":"Tripoli","region_code":"LBY","population":2189000,"source_year":"","source_name":"Natural Earth populated places","source_url":"https://raw.githubusercontent.com/nvkelso/natural-earth-vector/master/geojson/ne_110m_populated_places.geojson","license":"public domain"},"geometry":{"type":"Point","coordinates":[13.180012,32.8925]}},{"type":"Feature","properties":{"name":"特拉维夫","name_en":"Tel Aviv","region_code":"ISR","population":3112000,"source_year":"","source_name":"Natural Earth populated places","source_url":"https://raw.githubusercontent.com/nvkelso/natural-earth-vector/master/geojson/ne_110m_populated_places.geojson","license":"public domain"},"geometry":{"type":"Point","coordinates":[34.768066,32.081937]}},{"type":"Feature","properties":{"name":"赫尔辛基","name_en":"Helsinki","region_code":"FIN","population":1115000,"source_year":"","source_name":"Natural Earth populated places","source_url":"https://raw.githubusercontent.com/nvkelso/natural-earth-vector/master/geojson/ne_110m_populated_places.geojson","license":"public domain"},"geometry":{"type":"Point","coordinates":[24.932457,60.163804]}},{"type":"Feature","properties":{"name":"哥本哈根","name_en":"København","region_code":"DNK","population":1085000,"source_year":"","source_name":"Natural Earth populated places","source_url":"https://raw.githubusercontent.com/nvkelso/natural-earth-vector/master/geojson/ne_110m_populated_places.geojson","license":"public domain"},"geometry":{"type":"Point","coordinates":[12.56154,55.68051]}},{"type":"Feature","properties":{"name":"阿比让","name_en":"Abidjan","region_code":"CIV","population":3802000,"source_year":"","source_name":"Natural Earth populated places","source_url":"https://raw.githubusercontent.com/nvkelso/natural-earth-vector/master/geojson/ne_110m_populated_places.geojson","license":"public domain"},"geometry":{"type":"Point","coordinates":[-4.020207,5.323126]}},{"type":"Feature","properties":{"name":"巴西利亚","name_en":"Brasília","region_code":"BRA","population":3716996,"source_year":"","source_name":"Natural Earth populated places","source_url":"https://raw.githubusercontent.com/nvkelso/natural-earth-vector/master/geojson/ne_110m_populated_places.geojson","license":"public domain"},"geometry":{"type":"Point","coordinates":[-47.917998,-15.781394]}},{"type":"Feature","properties":{"name":"布鲁塞尔","name_en":"Brussels","region_code":"BEL","population":1743000,"source_year":"","source_name":"Natural Earth populated places","source_url":"https://raw.githubusercontent.com/nvkelso/natural-earth-vector/master/geojson/ne_110m_populated_places.geojson","license":"public domain"},"geometry":{"type":"Point","coordinates":[4.331371,50.835263]}},{"type":"Feature","properties":{"name":"达卡","name_en":"Dhaka","region_code":"BGD","population":12797394,"source_year":"","source_name":"Natural Earth populated places","source_url":"https://raw.githubusercontent.com/nvkelso/natural-earth-vector/master/geojson/ne_110m_populated_places.geojson","license":"public domain"},"geometry":{"type":"Point","coordinates":[90.406634,23.725006]}},{"type":"Feature","properties":{"name":"罗安达","name_en":"Luanda","region_code":"AGO","population":5172900,"source_year":"","source_name":"Natural Earth populated places","source_url":"https://raw.githubusercontent.com/nvkelso/natural-earth-vector/master/geojson/ne_110m_populated_places.geojson","license":"public domain"},"geometry":{"type":"Point","coordinates":[13.232481,-8.83634]}},{"type":"Feature","properties":{"name":"阿尔及尔","name_en":"Algiers","region_code":"DZA","population":3354000,"source_year":"","source_name":"Natural Earth populated places","source_url":"https://raw.githubusercontent.com/nvkelso/natural-earth-vector/master/geojson/ne_110m_populated_places.geojson","license":"public domain"},"geometry":{"type":"Point","coordinates":[3.048607,36.765011]}},{"type":"Feature","properties":{"name":"仰光","name_en":"Yangon","region_code":"MMR","population":4088000,"source_year":"","source_name":"Natural Earth populated places","source_url":"https://raw.githubusercontent.com/nvkelso/natural-earth-vector/master/geojson/ne_110m_populated_places.geojson","license":"public domain"},"geometry":{"type":"Point","coordinates":[96.164732,16.7853]}},{"type":"Feature","properties":{"name":"旧金山","name_en":"San Francisco","region_code":"USA","population":3450000,"source_year":"","source_name":"Natural Earth populated places","source_url":"https://raw.githubusercontent.com/nvkelso/natural-earth-vector/master/geojson/ne_110m_populated_places.geojson","license":"public domain"},"geometry":{"type":"Point","coordinates":[-122.3996,37.784263]}},{"type":"Feature","properties":{"name":"丹佛","name_en":"Denver","region_code":"USA","population":2313000,"source_year":"","source_name":"Natural Earth populated places","source_url":"https://raw.githubusercontent.com/nvkelso/natural-earth-vector/master/geojson/ne_110m_populated_places.geojson","license":"public domain"},"geometry":{"type":"Point","coordinates":[-104.985962,39.741134]}},{"type":"Feature","properties":{"name":"休斯敦","name_en":"Houston","region_code":"USA","population":4459000,"source_year":"","source_name":"Natural Earth populated places","source_url":"https://raw.githubusercontent.com/nvkelso/natural-earth-vector/master/geojson/ne_110m_populated_places.geojson","license":"public domain"},"geometry":{"type":"Point","coordinates":[-95.348436,29.741273]}},{"type":"Feature","properties":{"name":"迈阿密","name_en":"Miami","region_code":"USA","population":5585000,"source_year":"","source_name":"Natural Earth populated places","source_url":"https://raw.githubusercontent.com/nvkelso/natural-earth-vector/master/geojson/ne_110m_populated_places.geojson","license":"public domain"},"geometry":{"type":"Point","coordinates":[-80.226052,25.789557]}},{"type":"Feature","properties":{"name":"亚特兰大","name_en":"Atlanta","region_code":"USA","population":4506000,"source_year":"","source_name":"Natural Earth populated places","source_url":"https://raw.githubusercontent.com/nvkelso/natural-earth-vector/master/geojson/ne_110m_populated_places.geojson","license":"public domain"},"geometry":{"type":"Point","coordinates":[-84.367642,33.739457]}},{"type":"Feature","properties":{"name":"芝加哥","name_en":"Chicago","region_code":"USA","population":8990000,"source_year":"","source_name":"Natural Earth populated places","source_url":"https://raw.githubusercontent.com/nvkelso/natural-earth-vector/master/geojson/ne_110m_populated_places.geojson","license":"public domain"},"geometry":{"type":"Point","coordinates":[-87.635237,41.847961]}},{"type":"Feature","properties":{"name":"加拉加斯","name_en":"Caracas","region_code":"VEN","population":2985000,"source_year":"","source_name":"Natural Earth populated places","source_url":"https://raw.githubusercontent.com/nvkelso/natural-earth-vector/master/geojson/ne_110m_populated_places.geojson","license":"public domain"},"geometry":{"type":"Point","coordinates":[-66.918983,10.502944]}},{"type":"Feature","properties":{"name":"基辅","name_en":"Kyiv","region_code":"UKR","population":2709000,"source_year":"","source_name":"Natural Earth populated places","source_url":"https://raw.githubusercontent.com/nvkelso/natural-earth-vector/master/geojson/ne_110m_populated_places.geojson","license":"public domain"},"geometry":{"type":"Point","coordinates":[30.514682,50.435313]}},{"type":"Feature","properties":{"name":"迪拜","name_en":"Dubai","region_code":"ARE","population":1379000,"source_year":"","source_name":"Natural Earth populated places","source_url":"https://raw.githubusercontent.com/nvkelso/natural-earth-vector/master/geojson/ne_110m_populated_places.geojson","license":"public domain"},"geometry":{"type":"Point","coordinates":[55.286946,25.214912]}},{"type":"Feature","properties":{"name":"塔什干","name_en":"Tashkent","region_code":"UZB","population":2184000,"source_year":"","source_name":"Natural Earth populated places","source_url":"https://raw.githubusercontent.com/nvkelso/natural-earth-vector/master/geojson/ne_110m_populated_places.geojson","license":"public domain"},"geometry":{"type":"Point","coordinates":[69.268823,41.303828]}},{"type":"Feature","properties":{"name":"马德里","name_en":"Madrid","region_code":"ESP","population":5567000,"source_year":"","source_name":"Natural Earth populated places","source_url":"https://raw.githubusercontent.com/nvkelso/natural-earth-vector/master/geojson/ne_110m_populated_places.geojson","license":"public domain"},"geometry":{"type":"Point","coordinates":[-3.685297,40.401972]}},{"type":"Feature","properties":{"name":"日内瓦","name_en":"Geneva","region_code":"CHE","population":1240000,"source_year":"","source_name":"Natural Earth populated places","source_url":"https://raw.githubusercontent.com/nvkelso/natural-earth-vector/master/geojson/ne_110m_populated_places.geojson","license":"public domain"},"geometry":{"type":"Point","coordinates":[6.140028,46.210008]}},{"type":"Feature","properties":{"name":"斯德哥尔摩","name_en":"Stockholm","region_code":"SWE","population":1264000,"source_year":"","source_name":"Natural Earth populated places","source_url":"https://raw.githubusercontent.com/nvkelso/natural-earth-vector/master/geojson/ne_110m_populated_places.geojson","license":"public domain"},"geometry":{"type":"Point","coordinates":[18.0663,59.324127]}},{"type":"Feature","properties":{"name":"曼谷","name_en":"Bangkok","region_code":"THA","population":6704000,"source_year":"","source_name":"Natural Earth populated places","source_url":"https://raw.githubusercontent.com/nvkelso/natural-earth-vector/master/geojson/ne_110m_populated_places.geojson","license":"public domain"},"geometry":{"type":"Point","coordinates":[100.514699,13.751945]}},{"type":"Feature","properties":{"name":"利马","name_en":"Lima","region_code":"PER","population":8012000,"source_year":"","source_name":"Natural Earth populated places","source_url":"https://raw.githubusercontent.com/nvkelso/natural-earth-vector/master/geojson/ne_110m_populated_places.geojson","license":"public domain"},"geometry":{"type":"Point","coordinates":[-77.052008,-12.046067]}},{"type":"Feature","properties":{"name":"达喀尔","name_en":"Dakar","region_code":"SEN","population":2604000,"source_year":"","source_name":"Natural Earth populated places","source_url":"https://raw.githubusercontent.com/nvkelso/natural-earth-vector/master/geojson/ne_110m_populated_places.geojson","license":"public domain"},"geometry":{"type":"Point","coordinates":[-17.475076,14.717778]}},{"type":"Feature","properties":{"name":"约翰内斯堡","name_en":"Johannesburg","region_code":"ZAF","population":3435000,"source_year":"","source_name":"Natural Earth populated places","source_url":"https://raw.githubusercontent.com/nvkelso/natural-earth-vector/master/geojson/ne_110m_populated_places.geojson","license":"public domain"},"geometry":{"type":"Point","coordinates":[28.028064,-26.168099]}},{"type":"Feature","properties":{"name":"阿姆斯特丹","name_en":"Amsterdam","region_code":"NLD","population":1031000,"source_year":"","source_name":"Natural Earth populated places","source_url":"https://raw.githubusercontent.com/nvkelso/natural-earth-vector/master/geojson/ne_110m_populated_places.geojson","license":"public domain"},"geometry":{"type":"Point","coordinates":[4.914694,52.351914]}},{"type":"Feature","properties":{"name":"卡萨布兰卡","name_en":"Casablanca","region_code":"MAR","population":3181000,"source_year":"","source_name":"Natural Earth populated places","source_url":"https://raw.githubusercontent.com/nvkelso/natural-earth-vector/master/geojson/ne_110m_populated_places.geojson","license":"public domain"},"geometry":{"type":"Point","coordinates":[-7.618313,33.601922]}},{"type":"Feature","properties":{"name":"首尔","name_en":"Seoul","region_code":"KOR","population":9796000,"source_year":"","source_name":"Natural Earth populated places","source_url":"https://raw.githubusercontent.com/nvkelso/natural-earth-vector/master/geojson/ne_110m_populated_places.geojson","license":"public domain"},"geometry":{"type":"Point","coordinates":[126.997785,37.568295]}},{"type":"Feature","properties":{"name":"马尼拉","name_en":"Manila","region_code":"PHL","population":11100000,"source_year":"","source_name":"Natural Earth populated places","source_url":"https://raw.githubusercontent.com/nvkelso/natural-earth-vector/master/geojson/ne_110m_populated_places.geojson","license":"public domain"},"geometry":{"type":"Point","coordinates":[120.980271,14.606105]}},{"type":"Feature","properties":{"name":"蒙特雷","name_en":"Monterrey","region_code":"MEX","population":3712000,"source_year":"","source_name":"Natural Earth populated places","source_url":"https://raw.githubusercontent.com/nvkelso/natural-earth-vector/master/geojson/ne_110m_populated_places.geojson","license":"public domain"},"geometry":{"type":"Point","coordinates":[-100.331931,25.671941]}},{"type":"Feature","properties":{"name":"柏林","name_en":"Berlin","region_code":"DEU","population":3406000,"source_year":"","source_name":"Natural Earth populated places","source_url":"https://raw.githubusercontent.com/nvkelso/natural-earth-vector/master/geojson/ne_110m_populated_places.geojson","license":"public domain"},"geometry":{"type":"Point","coordinates":[13.399603,52.523764]}},{"type":"Feature","properties":{"name":"乌鲁木齐","name_en":"Ürümqi","region_code":"CHN","population":3575000,"source_year":"","source_name":"Natural Earth populated places","source_url":"https://raw.githubusercontent.com/nvkelso/natural-earth-vector/master/geojson/ne_110m_populated_places.geojson","license":"public domain"},"geometry":{"type":"Point","coordinates":[87.57306,43.806958]}},{"type":"Feature","properties":{"name":"成都","name_en":"Chengdu","region_code":"CHN","population":4123000,"source_year":"","source_name":"Natural Earth populated places","source_url":"https://raw.githubusercontent.com/nvkelso/natural-earth-vector/master/geojson/ne_110m_populated_places.geojson","license":"public domain"},"geometry":{"type":"Point","coordinates":[104.068074,30.671946]}},{"type":"Feature","properties":{"name":"大阪","name_en":"Ōsaka","region_code":"JPN","population":11294000,"source_year":"","source_name":"Natural Earth populated places","source_url":"https://raw.githubusercontent.com/nvkelso/natural-earth-vector/master/geojson/ne_110m_populated_places.geojson","license":"public domain"},"geometry":{"type":"Point","coordinates":[135.503754,34.691095]}},{"type":"Feature","properties":{"name":"金沙萨","name_en":"Kinshasa","region_code":"COD","population":7843000,"source_year":"","source_name":"Natural Earth populated places","source_url":"https://raw.githubusercontent.com/nvkelso/natural-earth-vector/master/geojson/ne_110m_populated_places.geojson","license":"public domain"},"geometry":{"type":"Point","coordinates":[15.313026,-4.327778]}},{"type":"Feature","properties":{"name":"新德里","name_en":"New Delhi","region_code":"IND","population":317797,"source_year":"","source_name":"Natural Earth populated places","source_url":"https://raw.githubusercontent.com/nvkelso/natural-earth-vector/master/geojson/ne_110m_populated_places.geojson","license":"public domain"},"geometry":{"type":"Point","coordinates":[77.19998,28.600023]}},{"type":"Feature","properties":{"name":"班加罗尔","name_en":"Bengaluru","region_code":"IND","population":6787000,"source_year":"","source_name":"Natural Earth populated places","source_url":"https://raw.githubusercontent.com/nvkelso/natural-earth-vector/master/geojson/ne_110m_populated_places.geojson","license":"public domain"},"geometry":{"type":"Point","coordinates":[77.558064,12.971941]}},{"type":"Feature","properties":{"name":"雅典","name_en":"Athens","region_code":"GRC","population":3242000,"source_year":"","source_name":"Natural Earth populated places","source_url":"https://raw.githubusercontent.com/nvkelso/natural-earth-vector/master/geojson/ne_110m_populated_places.geojson","license":"public domain"},"geometry":{"type":"Point","coordinates":[23.731375,37.985272]}},{"type":"Feature","properties":{"name":"巴格达","name_en":"Baghdad","region_code":"IRQ","population":5054000,"source_year":"","source_name":"Natural Earth populated places","source_url":"https://raw.githubusercontent.com/nvkelso/natural-earth-vector/master/geojson/ne_110m_populated_places.geojson","license":"public domain"},"geometry":{"type":"Point","coordinates":[44.391923,33.340594]}},{"type":"Feature","properties":{"name":"亚的斯亚贝巴","name_en":"Addis Ababa","region_code":"ETH","population":3100000,"source_year":"","source_name":"Natural Earth populated places","source_url":"https://raw.githubusercontent.com/nvkelso/natural-earth-vector/master/geojson/ne_110m_populated_places.geojson","license":"public domain"},"geometry":{"type":"Point","coordinates":[38.698059,9.035256]}},{"type":"Feature","properties":{"name":"德黑兰","name_en":"Tehran","region_code":"IRN","population":7873000,"source_year":"","source_name":"Natural Earth populated places","source_url":"https://raw.githubusercontent.com/nvkelso/natural-earth-vector/master/geojson/ne_110m_populated_places.geojson","license":"public domain"},"geometry":{"type":"Point","coordinates":[51.422398,35.673889]}},{"type":"Feature","properties":{"name":"温哥华","name_en":"Vancouver","region_code":"CAN","population":2313328,"source_year":"","source_name":"Natural Earth populated places","source_url":"https://raw.githubusercontent.com/nvkelso/natural-earth-vector/master/geojson/ne_110m_populated_places.geojson","license":"public domain"},"geometry":{"type":"Point","coordinates":[-123.12359,49.275362]}},{"type":"Feature","properties":{"name":"多伦多","name_en":"Toronto","region_code":"CAN","population":5213000,"source_year":"","source_name":"Natural Earth populated places","source_url":"https://raw.githubusercontent.com/nvkelso/natural-earth-vector/master/geojson/ne_110m_populated_places.geojson","license":"public domain"},"geometry":{"type":"Point","coordinates":[-79.389459,43.664645]}},{"type":"Feature","properties":{"name":"布宜诺斯艾利斯","name_en":"Buenos Aires","region_code":"ARG","population":12795000,"source_year":"","source_name":"Natural Earth populated places","source_url":"https://raw.githubusercontent.com/nvkelso/natural-earth-vector/master/geojson/ne_110m_populated_places.geojson","license":"public domain"},"geometry":{"type":"Point","coordinates":[-58.432513,-34.610715]}},{"type":"Feature","properties":{"name":"喀布尔","name_en":"Kabul","region_code":"AFG","population":3277000,"source_year":"","source_name":"Natural Earth populated places","source_url":"https://raw.githubusercontent.com/nvkelso/natural-earth-vector/master/geojson/ne_110m_populated_places.geojson","license":"public domain"},"geometry":{"type":"Point","coordinates":[69.181314,34.518636]}},{"type":"Feature","properties":{"name":"维也纳","name_en":"Vienna","region_code":"AUT","population":2400000,"source_year":"","source_name":"Natural Earth populated places","source_url":"https://raw.githubusercontent.com/nvkelso/natural-earth-vector/master/geojson/ne_110m_populated_places.geojson","license":"public domain"},"geometry":{"type":"Point","coordinates":[16.364693,48.201961]}},{"type":"Feature","properties":{"name":"墨尔本","name_en":"Melbourne","region_code":"AUS","population":4170000,"source_year":"","source_name":"Natural Earth populated places","source_url":"https://raw.githubusercontent.com/nvkelso/natural-earth-vector/master/geojson/ne_110m_populated_places.geojson","license":"public domain"},"geometry":{"type":"Point","coordinates":[144.97307,-37.818086]}},{"type":"Feature","properties":{"name":"台北","name_en":"Taipei","region_code":"TWN","population":6900273,"source_year":"","source_name":"Natural Earth populated places","source_url":"https://raw.githubusercontent.com/nvkelso/natural-earth-vector/master/geojson/ne_110m_populated_places.geojson","license":"public domain"},"geometry":{"type":"Point","coordinates":[121.568333,25.035833]}},{"type":"Feature","properties":{"name":"奥克兰都会区","name_en":"Auckland","region_code":"NZL","population":1377200,"source_year":"","source_name":"Natural Earth populated places","source_url":"https://raw.githubusercontent.com/nvkelso/natural-earth-vector/master/geojson/ne_110m_populated_places.geojson","license":"public domain"},"geometry":{"type":"Point","coordinates":[174.763027,-36.848055]}},{"type":"Feature","properties":{"name":"洛杉矶","name_en":"Los Angeles","region_code":"USA","population":12500000,"source_year":"","source_name":"Natural Earth populated places","source_url":"https://raw.githubusercontent.com/nvkelso/natural-earth-vector/master/geojson/ne_110m_populated_places.geojson","license":"public domain"},"geometry":{"type":"Point","coordinates":[-118.231986,34.049219]}},{"type":"Feature","properties":{"name":"华盛顿哥伦比亚特区","name_en":"Washington,  D.C.","region_code":"USA","population":4338000,"source_year":"","source_name":"Natural Earth populated places","source_url":"https://raw.githubusercontent.com/nvkelso/natural-earth-vector/master/geojson/ne_110m_populated_places.geojson","license":"public domain"},"geometry":{"type":"Point","coordinates":[-77.011364,38.901495]}},{"type":"Feature","properties":{"name":"纽约","name_en":"New York","region_code":"USA","population":19040000,"source_year":"","source_name":"Natural Earth populated places","source_url":"https://raw.githubusercontent.com/nvkelso/natural-earth-vector/master/geojson/ne_110m_populated_places.geojson","license":"public domain"},"geometry":{"type":"Point","coordinates":[-73.995718,40.721562]}},{"type":"Feature","properties":{"name":"伦敦","name_en":"London","region_code":"GBR","population":8567000,"source_year":"","source_name":"Natural Earth populated places","source_url":"https://raw.githubusercontent.com/nvkelso/natural-earth-vector/master/geojson/ne_110m_populated_places.geojson","license":"public domain"},"geometry":{"type":"Point","coordinates":[-0.118668,51.501941]}},{"type":"Feature","properties":{"name":"伊斯坦布尔","name_en":"Istanbul","region_code":"TUR","population":10061000,"source_year":"","source_name":"Natural Earth populated places","source_url":"https://raw.githubusercontent.com/nvkelso/natural-earth-vector/master/geojson/ne_110m_populated_places.geojson","license":"public domain"},"geometry":{"type":"Point","coordinates":[28.974277,41.017602]}},{"type":"Feature","properties":{"name":"利雅德","name_en":"Riyadh","region_code":"SAU","population":4465000,"source_year":"","source_name":"Natural Earth populated places","source_url":"https://raw.githubusercontent.com/nvkelso/natural-earth-vector/master/geojson/ne_110m_populated_places.geojson","license":"public domain"},"geometry":{"type":"Point","coordinates":[46.720487,24.634497]}},{"type":"Feature","properties":{"name":"开普敦","name_en":"Cape Town","region_code":"ZAF","population":3215000,"source_year":"","source_name":"Natural Earth populated places","source_url":"https://raw.githubusercontent.com/nvkelso/natural-earth-vector/master/geojson/ne_110m_populated_places.geojson","license":"public domain"},"geometry":{"type":"Point","coordinates":[18.433042,-33.918065]}},{"type":"Feature","properties":{"name":"莫斯科","name_en":"Moscow","region_code":"RUS","population":10452000,"source_year":"","source_name":"Natural Earth populated places","source_url":"https://raw.githubusercontent.com/nvkelso/natural-earth-vector/master/geojson/ne_110m_populated_places.geojson","license":"public domain"},"geometry":{"type":"Point","coordinates":[37.613577,55.75411]}},{"type":"Feature","properties":{"name":"墨西哥城","name_en":"Mexico City","region_code":"MEX","population":19028000,"source_year":"","source_name":"Natural Earth populated places","source_url":"https://raw.githubusercontent.com/nvkelso/natural-earth-vector/master/geojson/ne_110m_populated_places.geojson","license":"public domain"},"geometry":{"type":"Point","coordinates":[-99.132934,19.444388]}},{"type":"Feature","properties":{"name":"拉各斯","name_en":"Lagos","region_code":"NGA","population":9466000,"source_year":"","source_name":"Natural Earth populated places","source_url":"https://raw.githubusercontent.com/nvkelso/natural-earth-vector/master/geojson/ne_110m_populated_places.geojson","license":"public domain"},"geometry":{"type":"Point","coordinates":[3.389585,6.445208]}},{"type":"Feature","properties":{"name":"罗马","name_en":"Rome","region_code":"ITA","population":3339000,"source_year":"","source_name":"Natural Earth populated places","source_url":"https://raw.githubusercontent.com/nvkelso/natural-earth-vector/master/geojson/ne_110m_populated_places.geojson","license":"public domain"},"geometry":{"type":"Point","coordinates":[12.481313,41.897902]}},{"type":"Feature","properties":{"name":"北京","name_en":"Beijing","region_code":"CHN","population":11106000,"source_year":"","source_name":"Natural Earth populated places","source_url":"https://raw.githubusercontent.com/nvkelso/natural-earth-vector/master/geojson/ne_110m_populated_places.geojson","license":"public domain"},"geometry":{"type":"Point","coordinates":[116.394201,39.90172]}},{"type":"Feature","properties":{"name":"内罗毕","name_en":"Nairobi","region_code":"KEN","population":3010000,"source_year":"","source_name":"Natural Earth populated places","source_url":"https://raw.githubusercontent.com/nvkelso/natural-earth-vector/master/geojson/ne_110m_populated_places.geojson","license":"public domain"},"geometry":{"type":"Point","coordinates":[36.814711,-1.281401]}},{"type":"Feature","properties":{"name":"雅加达","name_en":"Jakarta","region_code":"IDN","population":9125000,"source_year":"","source_name":"Natural Earth populated places","source_url":"https://raw.githubusercontent.com/nvkelso/natural-earth-vector/master/geojson/ne_110m_populated_places.geojson","license":"public domain"},"geometry":{"type":"Point","coordinates":[106.827492,-6.172472]}},{"type":"Feature","properties":{"name":"波哥大","name_en":"Bogota","region_code":"COL","population":7772000,"source_year":"","source_name":"Natural Earth populated places","source_url":"https://raw.githubusercontent.com/nvkelso/natural-earth-vector/master/geojson/ne_110m_populated_places.geojson","license":"public domain"},"geometry":{"type":"Point","coordinates":[-74.08529,4.598369]}},{"type":"Feature","properties":{"name":"开罗","name_en":"Cairo","region_code":"EGY","population":11893000,"source_year":"","source_name":"Natural Earth populated places","source_url":"https://raw.githubusercontent.com/nvkelso/natural-earth-vector/master/geojson/ne_110m_populated_places.geojson","license":"public domain"},"geometry":{"type":"Point","coordinates":[31.248022,30.051906]}},{"type":"Feature","properties":{"name":"上海","name_en":"Shanghai","region_code":"CHN","population":14987000,"source_year":"","source_name":"Natural Earth populated places","source_url":"https://raw.githubusercontent.com/nvkelso/natural-earth-vector/master/geojson/ne_110m_populated_places.geojson","license":"public domain"},"geometry":{"type":"Point","coordinates":[121.434559,31.218398]}},{"type":"Feature","properties":{"name":"东京","name_en":"Tokyo","region_code":"JPN","population":35676000,"source_year":"","source_name":"Natural Earth populated places","source_url":"https://raw.githubusercontent.com/nvkelso/natural-earth-vector/master/geojson/ne_110m_populated_places.geojson","license":"public domain"},"geometry":{"type":"Point","coordinates":[139.749462,35.686963]}},{"type":"Feature","properties":{"name":"孟买","name_en":"Mumbai","region_code":"IND","population":18978000,"source_year":"","source_name":"Natural Earth populated places","source_url":"https://raw.githubusercontent.com/nvkelso/natural-earth-vector/master/geojson/ne_110m_populated_places.geojson","license":"public domain"},"geometry":{"type":"Point","coordinates":[72.875839,19.068408]}},{"type":"Feature","properties":{"name":"巴黎","name_en":"Paris","region_code":"FRA","population":9904000,"source_year":"","source_name":"Natural Earth populated places","source_url":"https://raw.githubusercontent.com/nvkelso/natural-earth-vector/master/geojson/ne_110m_populated_places.geojson","license":"public domain"},"geometry":{"type":"Point","coordinates":[2.352992,48.858092]}},{"type":"Feature","properties":{"name":"圣地亚哥","name_en":"Santiago","region_code":"CHL","population":5720000,"source_year":"","source_name":"Natural Earth populated places","source_url":"https://raw.githubusercontent.com/nvkelso/natural-earth-vector/master/geojson/ne_110m_populated_places.geojson","license":"public domain"},"geometry":{"type":"Point","coordinates":[-70.650504,-33.440205]}},{"type":"Feature","properties":{"name":"加尔各答","name_en":"Kolkata","region_code":"IND","population":14787000,"source_year":"","source_name":"Natural Earth populated places","source_url":"https://raw.githubusercontent.com/nvkelso/natural-earth-vector/master/geojson/ne_110m_populated_places.geojson","license":"public domain"},"geometry":{"type":"Point","coordinates":[88.369126,22.569579]}},{"type":"Feature","properties":{"name":"里约热内卢","name_en":"Rio de Janeiro","region_code":"BRA","population":11748000,"source_year":"","source_name":"Natural Earth populated places","source_url":"https://raw.githubusercontent.com/nvkelso/natural-earth-vector/master/geojson/ne_110m_populated_places.geojson","license":"public domain"},"geometry":{"type":"Point","coordinates":[-43.212117,-22.907308]}},{"type":"Feature","properties":{"name":"圣保罗","name_en":"São Paulo","region_code":"BRA","population":18845000,"source_year":"","source_name":"Natural Earth populated places","source_url":"https://raw.githubusercontent.com/nvkelso/natural-earth-vector/master/geojson/ne_110m_populated_places.geojson","license":"public domain"},"geometry":{"type":"Point","coordinates":[-46.626966,-23.556734]}},{"type":"Feature","properties":{"name":"悉尼","name_en":"Sydney","region_code":"AUS","population":4630000,"source_year":"","source_name":"Natural Earth populated places","source_url":"https://raw.githubusercontent.com/nvkelso/natural-earth-vector/master/geojson/ne_110m_populated_places.geojson","license":"public domain"},"geometry":{"type":"Point","coordinates":[151.212548,-33.871373]}},{"type":"Feature","properties":{"name":"新加坡","name_en":"Singapore","region_code":"SGP","population":5183700,"source_year":"","source_name":"Natural Earth populated places","source_url":"https://raw.githubusercontent.com/nvkelso/natural-earth-vector/master/geojson/ne_110m_populated_places.geojson","license":"public domain"},"geometry":{"type":"Point","coordinates":[103.853875,1.294979]}},{"type":"Feature","properties":{"name":"香港","name_en":"Hong Kong","region_code":"HKG","population":7206000,"source_year":"","source_name":"Natural Earth populated places","source_url":"https://raw.githubusercontent.com/nvkelso/natural-earth-vector/master/geojson/ne_110m_populated_places.geojson","license":"public domain"},"geometry":{"type":"Point","coordinates":[114.183064,22.306927]}}]}